ID_DOL,ID_DOL_1,name,address,cat,address1,address2,address3,tel,fax,open,close,floor,holiday,parking,category,lat,lng,,
31149,31149,Ａコープみなべ,日高郡みなべ町東吉田字砂取６０１,4,和歌山県,日高郡みなべ町,東吉田字砂取６０１,0739-72-1919,,9:00,20:00,地上１階,なし,◎一般駐車場　有り：４１台<br>◎障害者用駐車場　有り：２台,大規模小売店舗,33.776884706,135.328250051,,
31150,31150,スーパードラッグキリン下万呂店,田辺市下万呂字裏代４１８,4,和歌山県,田辺市,下万呂字裏代４１８,0739-81-3366,,9:00,23:00,地上１階,なし,◎一般駐車場　有り：１３０台<br>◎障害者用駐車場　有り：１台,大規模小売店舗,33.738779252,135.395715921,,
31151,31151,ＪＡ紀南ファーマーズマーケット「紀菜柑」,田辺市秋津町７５２−１,4,和歌山県,田辺市,秋津町７５２−１,0739-81-0831,,9:00,18:00,地上１階,なし,◎一般駐車場　有り：２２２台<br>◎障害者用駐車場　有り：２台,大規模小売店舗,33.743223037,135.387633332,,
31152,31152,ダイエー和歌山店,和歌山市小雑賀805-1,4,和歌山県,和歌山市,小雑賀805-1,073-426-3131,073-425-2730,9:00,21:30,地上２階,,◎一般駐車場　有り：１０００台<br>◎障害者用駐車場　有り：５台,大規模小売店舗,34.195331745,135.182976821,,
31153,31153,チェーンストアオークワ本店,和歌山市中島185-3,4,和歌山県,和歌山市,中島185-3,073-425-2400,073-425-2422,9:00,21:00,地上１階,無休,◎一般駐車場　有り：４００台<br>◎障害者用駐車場　有り：５台,大規模小売店舗,34.209135651,135.18622626,,
31154,31154,チェーンストアオークワ西浜店,和歌山市西浜938-2,4,和歌山県,和歌山市,西浜938-2,073-447-2213,073-447-2216,9:00,22:00,地上１階,無休,◎一般駐車場　有り：１５５台<br>◎障害者用駐車場　有り：２台,大規模小売店舗,34.200608582,135.158367572,,
31155,31155,Ａコープかつらぎ店,伊都郡かつらぎ町佐野迎田188-1,4,和歌山県,伊都郡かつらぎ町,佐野迎田188-1,0736-22-0222,0736-22-6436,9:00,21:00,地上２階,1月1日,◎一般駐車場　有り：５０台,大規模小売店舗,34.288798499,135.482948629,,
31156,31156,オークワかつらぎ町,伊都郡かつらぎ町佐野字島田881-1他,4,和歌山県,伊都郡かつらぎ町,佐野字島田881-1他,0736-22-3600,0736-22-8787,9:30,20:00,地上１階,火曜日（24日/年）,◎一般駐車場　有り：３００台<br>◎障害者用駐車場　有り：５台,大規模小売店舗,34.292693683,135.487236052,,
31157,31157,は〜と＆は〜と妙寺店,伊都郡かつらぎ町妙寺92-1,4,和歌山県,伊都郡かつらぎ町,妙寺92-1,0736-23-2678,0736-23-2578,10:00,20:00,地上１階,なし,◎一般駐車場　有り：２５台,大規模小売店舗,34.300325323,135.527195013,,
31158,31158,ザダイソー100YENPLAZA素材発信館,伊都郡かつらぎ町大字佐野字島田889-2、894-1,4,和歌山県,伊都郡かつらぎ町,大字佐野字島田889-2、894-1,0736-23-3350,0736-23-3350,9:00,21:00,地上１階,年中無休,◎一般駐車場　有り：２５０台<br>◎障害者用駐車場　有り：５台,大規模小売店舗,34.292242538,135.487097464,,
31159,31159,コーナンホームストックかつらぎ店,伊都郡かつらぎ町佐野833-1,4,和歌山県,伊都郡かつらぎ町,佐野833-1,0736-23-3715,0736-23-3736,9:30,20:00,地上１階,不定休,◎一般駐車場　有り：２７台<br>◎障害者用駐車場　有り：１台,大規模小売店舗,34.293075863,135.488864829,,
31160,31160,松源パイン高野口店,橋本市名倉199-1,4,和歌山県,橋本市,名倉199-1,0736-43-1695,0736-43-1696,9:30,21:00,地上１階,1/1〜5,◎一般駐車場　有り：８７台,大規模小売店舗,34.303269688,135.553970697,,
31161,31161,シューズ＆バッグ　こにし,橋本市高野口町名倉１９６−１,4,和歌山県,橋本市,高野口町名倉１９６−１,0736-42-2277,0736-42-4433,9:00,20:00,地上１階,第２・第３水曜日,◎一般駐車場　有り：１２台<br>◎障害者用駐車場　有り：１台,大規模小売店舗,34.302991927,135.554442868,,
31162,31162,(株)松源伏原店,橋本市伏原字薮田106他,4,和歌山県,橋本市,伏原字薮田106他,0736-42-5593,0736-44-1035,9:00,21:00,地上１階,なし,◎一般駐車場　有り：１１５台<br>◎障害者用駐車場　有り：２台,大規模小売店舗,34.307075171,135.569858471,,
31163,31163,オークワ高野口店,橋本市高野口町伏原139-1,4,和歌山県,橋本市,高野口町伏原139-1,0736-42-5575,0736-42-5677,9:00,23:00,地上２階,なし,◎一般駐車場　有り：２６２台<br>◎障害者用駐車場　有り：２台,大規模小売店舗,34.303993565,135.569589799,,
31164,31164,花園生産物直売所,伊都郡かつらぎ町花園久木20,4,和歌山県,伊都郡かつらぎ町,花園久木20,0737-26-0888,,9:00,17:00,地上１階,12/1〜3/15,◎一般駐車場　有り：８０台,大規模小売店舗,34.146998343,135.587531483,,
31165,31165,ゴトウ本店県庁前店,和歌山市真砂町1丁目1-57,4,和歌山県,和歌山市,真砂町1丁目1-57,073-428-0510,073-436-0510,9:00,22:00,地上４階,無休,◎一般駐車場　有り：２２台<br>◎障害者用駐車場　有り：１台,大規模小売店舗,34.224216899,135.169449471,,
31166,31166,イズミヤ和歌山店,和歌山市新生町7-20,4,和歌山県,和歌山市,新生町7-20,073-427-0550,073-424-8141,10:00,20:00,地上２階,木曜,◎一般駐車場　有り：１３００台<br>◎障害者用駐車場　有り：６台,大規模小売店舗,34.221300928,135.187448138,,
31167,31167,オークワ屋形店,和歌山市屋形町４丁目29,4,和歌山県,和歌山市,屋形町４丁目29,073-424-1191,073-426-3269,9:30,20:00,地上３階,水曜,◎一般駐車場　有り：１７５台,大規模小売店舗,34.224966951,135.177948758,,
31168,31168,プライスカット　ヒラマツ　太田店,和歌山市太田100-1,4,和歌山県,和歌山市,太田100-1,073-474-8855,073-474-8900,9:00,24:00,地上２階,年中無休,◎一般駐車場　有り：１００台<br>◎障害者用駐車場　有り,大規模小売店舗,34.227161553,135.193781,,
31169,31169,近鉄百貨店,和歌山市友田町５丁目18,4,和歌山県,和歌山市,友田町５丁目18,073-433-1122,073-433-1815,10:00,19:00,地上５階、地下１階,木曜（不定期）,◎一般駐車場　有り：５９６台<br>◎障害者用駐車場　有り：２台,大規模小売店舗,34.232938676,135.190447734,,
31170,31170,洋服の青山宮街道店,和歌山市太田199-1,4,和歌山県,和歌山市,太田199-1,073-474-1146,073-474-1147,10:00,20:00,地上２階,なし,◎一般駐車場　有り：４４台<br>◎障害者用駐車場　有り：１台,大規模小売店舗,34.228439328,135.197780699,,
31171,31171,A-プライス和歌山店,和歌山市広瀬中ノ丁2丁目55番地,4,和歌山県,和歌山市,広瀬中ノ丁2丁目55番地,073-432-2041,073-432-2158,9:30,18:30,地上１階,なし,◎一般駐車場　有り：２０台<br>◎障害者用駐車場　有り：１台,大規模小売店舗,34.225783913,135.183391443,,
31172,31172,ホームセンターコーナン和歌山店,和歌山市南片原２丁目１番地,4,和歌山県,和歌山市,南片原２丁目１番地,073-435-0157（代）,073-435-0161,9:30,20:00,地上２階,元日他,◎一般駐車場　有り：２５０〜２６０台<br>◎障害者用駐車場　有り：４台,大規模小売店舗,34.224125745,135.181256329,,
31173,31173,スーパードラックイレブンぶらくり店,和歌山市元寺町３丁目53,4,和歌山県,和歌山市,元寺町３丁目53,073-427-8001,073-402-0588,9:00,23:00,地上１階,無休,◎一般駐車場　有り：１４台<br>◎障害者用駐車場　有り：１台,大規模小売店舗,34.236882628,135.176710987,,
31174,31174,メッサ　ヒラマツ鳴神店,和歌山市鳴神1019,4,和歌山県,和歌山市,鳴神1019,073-472-5588,073-473-6003,0:00,24:00,地上１階,年中無休,◎一般駐車場　有り：１００台<br>◎障害者用駐車場　有り,大規模小売店舗,34.229550584,135.20847437,,
31175,31175,朱洸神前店,和歌山市津秦143-2,4,和歌山県,和歌山市,津秦143-2,073-474-4600,073-474-4601,10:00,18:30,地上３階,火曜,◎一般駐車場　有り：３０台,大規模小売店舗,34.218273877,135.204530472,,
31176,31176,オークワ日昌店,和歌山市中之島298-1,4,和歌山県,和歌山市,中之島298-1,073-472-3771,073-473-6880,9:30,21:00,地上１階,年中無休,◎一般駐車場　有り：７０台,大規模小売店舗,34.243965543,135.193725137,,
31177,31177,オークワＦＣ神前岩崎店,和歌山市神前373-4,4,和歌山県,和歌山市,神前373-4,073-474-3851,073-474-3854,9:00,23:00,地上１階,年中無休,◎一般駐車場　有り：１００台,大規模小売店舗,34.210969272,135.206863791,,
31178,31178,ヒラマツ神前店,和歌山市神前138-7,4,和歌山県,和歌山市,神前138-7,073-472-1919,073-473-4496,9:00,21:00,地上１階,年中無休,◎一般駐車場　有り：７０台,大規模小売店舗,34.21413547,135.205336015,,
31179,31179,喫茶レストランふるさと,和歌山市布施屋字田浦320-7,4,和歌山県,和歌山市,布施屋字田浦320-7,073-477-3789,,8:00,20:00,地上２階,なし,◎一般駐車場　有り：２６台<br>◎障害者用駐車場　有り：１台,大規模小売店舗,34.240387348,135.266826648,,
31180,31180,オークワ神前店,和歌山市神前509,4,和歌山県,和歌山市,神前509,073-474-2700,073-474-2705,9:00,23:00,地上１階,なし,◎一般駐車場　有り：７５台<br>◎障害者用駐車場　有り：１台,大規模小売店舗,34.213668925,135.20543602,,
31181,31181,WAY本社中島店,和歌山市北中島1-158-1,4,和歌山県,和歌山市,北中島1-158-1,073-402-3800,073-402-3810,0:00,24:00,地上２階,なし,◎一般駐車場　有り：５００台<br>◎障害者用駐車場　有り：１台,大規模小売店舗,34.209468997,135.185504099,,
31182,31182,オージョイフル神前店,和歌山市神前字千本523-2他,4,和歌山県,和歌山市,神前字千本523-2他,073-475-6171,,9:30,21:00,地上２階,不定休,◎一般駐車場　有り：<br>◎障害者用駐車場　有り：１台,大規模小売店舗,34.208485661,135.206351084,,
31183,31183,オークワ川永西店,和歌山市北字馬添183-1,4,和歌山県,和歌山市,北字馬添183-1,073-462-8011,073-462-8022,9:00,24:00,地上１階,なし,◎一般駐車場　有り：125台<br>◎障害者用駐車場　有り：2台,大規模小売店舗,34.255929882,135.239957425,,
31184,31184,パームシティー和歌山店,和歌山市中野31-1,4,和歌山県,和歌山市,中野31-1,073-456-2000,073-456-2400,10:00,20:00,地上３階、地下１階,火曜（年24回）,◎一般駐車場　有り：２、３００台<br>◎障害者用駐車場　有り：３０台,大規模小売店舗,34.254935665,135.141145011,,
31185,31185,パームシティー和歌山店（東館）,和歌山市中野31-1,4,和歌山県,和歌山市,中野31-1,073-456-2000,073-456-2400,9:00,22:00,地上３階、地下１階,なし,◎一般駐車場　有り：２、３００台<br>◎障害者用駐車場　有り：２０台,大規模小売店舗,34.254935665,135.141145011,,
31186,31186,サンキョー,和歌山市市小路308-1,4,和歌山県,和歌山市,市小路308-1,073-455-5511,073-451-7945,9:30,20:00,地上１階,年中無休,◎一般駐車場　有り：５０台,大規模小売店舗,34.256436077,135.171865365,,
31187,31187,スーパーウジタフードコート店（延時）,和歌山市土入73-1,4,和歌山県,和歌山市,土入73-1,073-452-7121,073-453-6522,10:00,20:00,地上１階,水曜,◎一般駐車場　有り：５０台,大規模小売店舗,34.252865134,135.145633584,,
31188,31188,スーパーウジタ　フードエレガンス店（古屋）,和歌山市古屋82-1,4,和歌山県,和歌山市,古屋82-1,073-452-0331,073-453-3169,10:00,20:00,地上１階,水曜,◎一般駐車場　有り：８０台,大規模小売店舗,34.255685293,135.119702113,,
31189,31189,ヒラマツ園部店,和歌山市園部858-1,4,和歌山県,和歌山市,園部858-1,073-462-0505,073-462-0556,9:30,24:00,地上１階,年中無休,◎一般駐車場　有り：２５０台,大規模小売店舗,34.262269515,135.195391459,,
31190,31190,オークワオーストリート紀ノ川店,和歌山市平井字前嶋154,4,和歌山県,和歌山市,平井字前嶋154,073-451-4400,073-451-4435,9:00,21:00,地上１階,なし,◎一般駐車場　有り：１００台<br>◎障害者用駐車場　有り：４台,大規模小売店舗,34.260157899,135.169865376,,
31191,31191,コメリホームセンター紀ノ川店,和歌山市次郎丸48,4,和歌山県,和歌山市,次郎丸48,073-480-2322,073-480-2855,9:00,20:00,地上１階,年４回不定,◎一般駐車場　有り：４９０台<br>◎障害者用駐車場　有り：５台,大規模小売店舗,34.254591945,135.15069847,,
31192,31192,オークワ西浜店,和歌山市西浜938-2,4,和歌山県,和歌山市,西浜938-2,073-447-2213,073-447-2216,10:00,22:00,地上１階,年間６日程度,◎一般駐車場　有り：５８台,大規模小売店舗,34.200608582,135.158367572,,
31193,31193,ゴトウ本店紀三井寺店,和歌山市紀三井寺659,4,和歌山県,和歌山市,紀三井寺659,073-445-0510,073-445-6228,9:00,20:00,地上２階,年中無休,◎一般駐車場　有り：５０台,大規模小売店舗,34.182527795,135.186421284,,
31194,31194,紳士服はるやま(和歌山国体道路店),和歌山市小雑賀字浜畑603-2,4,和歌山県,和歌山市,小雑賀字浜畑603-2,073-422-0848,073-402-0853,9:00,21:00,地上２階,無休,◎一般駐車場　有り：３０台<br>◎障害者用駐車場　有り：１台,大規模小売店舗,34.201192186,135.185282101,,
31195,31195,ローソン和歌山紀三井寺店,和歌山市紀三井寺字東浜855-25,4,和歌山県,和歌山市,紀三井寺字東浜855-25,073-447-9439,,0:00,24:00,地上１階,無休,◎一般駐車場　有り：１５台<br>◎障害者用駐車場　有り：１台,大規模小売店舗,34.186274764,135.184113073,,
31196,31196,オークワユピア店,有田郡湯浅町湯浅川久保1852-1,4,和歌山県,有田郡湯浅町,湯浅川久保1852-1,0737-63-6211,0737-63-6224,10:00,20:00,地上２階,年中無休,◎一般駐車場　有り：６００台,大規模小売店舗,34.041212348,135.187304633,,
31197,31197,フードラック広岡湯浅店,有田郡湯浅町湯浅1792,4,和歌山県,有田郡湯浅町,湯浅1792,0737-64-1200,0737-64-1700,9:30,22:00,地上１階,年中無休,◎一般駐車場　有り：４００台,大規模小売店舗,34.039102981,135.181229996,,
31198,31198,（株）松源湯浅店,有田郡湯浅町湯浅1658-1,4,和歌山県,有田郡湯浅町,湯浅1658-1,0737-62-4519,0737-63-0674,9:30,22:00,地上１階,年中無休,◎一般駐車場　有り：１２０台<br>◎障害者用駐車場　有り：１台,大規模小売店舗,34.037472841,135.179513002,,
31199,31199,ケイマーケット広川店,有田郡広川町広503-13,4,和歌山県,有田郡広川町,広503-13,0737-62-3957,0737-63-0357,8:00,19:00,地上２階,日曜,◎一般駐車場　有り：３台,大規模小売店舗,34.027153513,135.175408559,,
31200,31200,デリシャス広岡広川店,有田郡広川町広503-1,4,和歌山県,有田郡広川町,広503-1,0737-64-0200,0737-64-0778,9:30,23:00,地上２階,無休（1/1、2を除く）,◎一般駐車場　有り：５０台,大規模小売店舗,34.026992224,135.175132195,,
31201,31201,松源吉備店,有田郡有田川町下津野558,4,和歌山県,有田郡有田川町,下津野558,0737-52-5364,0737-52-6213,9:30,22:00,地上１階,年２回程度,◎一般駐車場　有り：８０台,大規模小売店舗,34.065630808,135.215556689,,
31202,31202,デリシャス広岡吉備店,有田郡有田川町天満563,4,和歌山県,有田郡有田川町,天満563,0737-52-6850,0737-52-6858,9:00,24:00,地上２階,1/1、1/2,◎一般駐車場　有り：１００台<br>◎障害者用駐車場　有り,大規模小売店舗,34.062544838,135.203005254,,
31203,31203,チェーンストアオークワ吉備店,有田郡有田川町天満池ノ内４０７,4,和歌山県,有田郡有田川町,天満池ノ内４０７,0737-52-8800,0737-52-8810,9:30,21:00,地上１階,年間２０日,◎一般駐車場　有り：２７０台<br>◎障害者用駐車場　有り：５台,大規模小売店舗,34.060073292,135.208976899,,
31204,31204,コーナンホームストック吉備店,有田郡有田川町徳田1192,4,和歌山県,有田郡有田川町,徳田1192,0737-53-1811,0737-53-1813,9:30,20:00,地上１階,,◎一般駐車場　有り：５４台<br>◎障害者用駐車場　有り：１台,大規模小売店舗,34.060130266,135.246946154,,
31205,31205,Ａコープ金屋店,有田郡有田川町中野36-1,4,和歌山県,有田郡有田川町,中野36-1,0737-32-4000,0737-32-2222,9:30,20:00,地上１階,年中無休,◎一般駐車場　有り,大規模小売店舗,34.067184813,135.254500993,,
31206,31206,しみず農林産物振興センター,有田郡有田川町清水1224-2,4,和歌山県,有田郡有田川町,清水1224-2,0737-25-0221,0737-25-0221,8:30,17:00,地上１階,官庁御用納めの翌日から1/1まで,◎一般駐車場　有り：３３台,大規模小売店舗,34.082822439,135.432151947,,
31207,31207,エーコープかいなん,海南市阪井字中ノ坪1744-1,4,和歌山県,海南市,阪井字中ノ坪1744-1,073-487-0900,073-487-0987,9:30,20:00,地上２階,第１・３水曜,◎一般駐車場　有り：１００台,大規模小売店舗,34.159382395,135.26743764,,
31208,31208,海南中央商業協同組合,海南市日方1520,4,和歌山県,海南市,日方1520,073-483-5000,073-483-5409,10:00,20:00,地上２階、地下１階,木曜,◎一般駐車場　有り：３０４台<br>◎障害者用駐車場　有り：２台,大規模小売店舗,34.159497387,135.267992096,,
31209,31209,(株）松源海南日方店,海南市日方上芦原1030番地,4,和歌山県,海南市,日方上芦原1030番地,073-482-2279,073-482-2282,9:00,21:00,地上１階,年中無休,◎一般駐車場　有り：１１０台,大規模小売店舗,34.156754577,135.21675231,,
31210,31210,オークワ海南幡川店,海南市幡川字下九条105,4,和歌山県,海南市,幡川字下九条105,073-483-1600,073-483-1611,9:00,24:00,地上１階,無し,◎一般駐車場　有り：98台<br>◎障害者用駐車場　有り：2台,大規模小売店舗,34.153665056,135.234828491,,
31211,31211,ダイキ海南店,海南市幡川77,4,和歌山県,海南市,幡川77,073-484-2701,073-484-2703,9:00,21:00,地上２階（売り場は１階のみ）,無し,◎一般駐車場　有り：200台<br>◎障害者用駐車場　有り：2台,大規模小売店舗,34.153665074,135.235660341,,
31212,31212,Ａコープ橋本店,橋本市東家６丁目340,4,和歌山県,橋本市,東家６丁目340,0736-34-0800,0736-34-0803,9:30,19:00,地上１階,水曜,◎一般駐車場　有り：１００台,大規模小売店舗,34.313676213,135.605616703,,
31213,31213,フォレストはしもと,橋本市三石台１丁目3-11,4,和歌山県,橋本市,三石台１丁目3-11,0736-37-4717,,10:00,21:00,地上２階,月に一度、1/1〜1/3,,大規模小売店舗,34.356027306,135.602390314,,
31214,31214,松源橋本店,橋本市東家１丁目166-1,4,和歌山県,橋本市,東家１丁目166-1,0736-34-0500,0736-34-1253,9:30,20:00,地上２階,,◎一般駐車場　有り：１２０台<br>◎障害者用駐車場　有り：４台,大規模小売店舗,34.314713623,135.606872667,,
31215,31215,オークワ橋本林間ショッピングセンター,橋本市三石台１丁目2-1,4,和歌山県,橋本市,三石台１丁目2-1,0736-36-3300,0736-36-3310,10:00,20:00,地上２階,水曜,◎一般駐車場　有り：４６０台<br>◎障害者用駐車場　有り：１５台,大規模小売店舗,34.357361058,135.603471592,,
31216,31216,（株）ベターライフ橋本店,橋本市北馬場7-9,4,和歌山県,橋本市,北馬場7-9,0736-39-3070,0736-33-0012,10:00,20:00,地上１階,1日/月,◎一般駐車場　有り：２００台<br>◎障害者用駐車場　有り：５台,大規模小売店舗,34.328266502,135.608546432,,
31217,31217,はるやま橋本店,橋本市隅田町河瀬415-1,4,和歌山県,橋本市,隅田町河瀬415-1,0736-32-1900,0736-39-2950,10:00,20:00,地上２階,なし,◎一般駐車場　有り：18台<br>◎障害者用駐車場　有り：1台,大規模小売店舗,34.322331719,135.627124492,,
31218,31218,オークワ箕島店,有田市箕島北広瀬92-1,4,和歌山県,有田市,箕島北広瀬92-1,0737-83-5521,0737-83-5913,10:00,20:00,地上２階,火曜,◎一般駐車場　有り：７００台,大規模小売店舗,34.085200462,135.128206768,,
31219,31219,松源箕島店,有田市箕島７２１番地の１,4,和歌山県,有田市,箕島７２１番地の１,0737-83-3113,0737-83-3114,9:30,21:00,地上１階,,◎一般駐車場　有り：８０台<br>◎障害者用駐車場　有り：２台,大規模小売店舗,34.087085875,135.113573601,,
31220,31220,千寿堂野口新橋店,御坊市藤田町吉田327-1,4,和歌山県,御坊市,藤田町吉田327-1,0738-23-2288,738-23-2457,9:00,22:00,地上１階,年中無休,◎一般駐車場　有り：８３台,大規模小売店舗,33.901098084,135.170643043,,
31221,31221,ミドリ御坊店,御坊市湯川町小松原212,4,和歌山県,御坊市,湯川町小松原212,0738-24-0450,0738-23-5117,7:00,22:00,地上１階,火曜,◎一般駐車場　有り：７０台,大規模小売店舗,33.901981483,135.163778302,,
31222,31222,スーパークボテツ吉田店,御坊市藤田町吉田351,4,和歌山県,御坊市,藤田町吉田351,0738-23-2288,0738-23-2457,9:00,22:00,地上１階,年中無休,◎一般駐車場　有り：２６台,大規模小売店舗,33.901514377,135.168586809,,
31223,31223,スーパードラックキリン御坊店,御坊市藤田町吉田537-1,4,和歌山県,御坊市,藤田町吉田537-1,0738-24-2215,0738-24-2216,9:30,22:00,地上１階,年中無休,◎一般駐車場　有り：２８台,大規模小売店舗,33.902069267,135.166954938,,
31224,31224,ミスタージョン御坊店,御坊市湯川町財部字平田620-1,4,和歌山県,御坊市,湯川町財部字平田620-1,0738-32-3121,0738-32-3088,9:00,20:00,地上１階,特になし,◎一般駐車場　有り：１３０台<br>◎障害者用駐車場　有り：２台,大規模小売店舗,33.898926945,135.150538692,,
31225,31225,ロマンシティ御坊店,御坊市湯川町財部181,4,和歌山県,御坊市,湯川町財部181,0738-32-3200,0738-32-3201,9:00,21:00,地上３階,なし,◎一般駐車場　有り：１，０００台<br>◎障害者用駐車場　有り：１０台,大規模小売店舗,33.897768118,135.148765173,,
31226,31226,ケーズデンキ御坊パワフル館,御坊市野口590-3,4,和歌山県,御坊市,野口590-3,0738-23-1353,0738-22-7710,10:00,20:00,地上１階,なし,◎一般駐車場　有り：６５台<br>◎障害者用駐車場　有り：２台,大規模小売店舗,33.898323921,135.179233208,,
31227,31227,ミドリタナベショッピングセンター,田辺市宝来町24-26,4,和歌山県,田辺市,宝来町24-26,0739-25-3311,0739-22-1194,9:00,20:00,地上４階,年24日（水曜日）,◎一般駐車場　有り：４５０台<br>◎障害者用駐車場　有り：３台,大規模小売店舗,33.73467223,135.388084152,,
31228,31228,Ａコープ万呂店,田辺市中万呂37-1,4,和歌山県,田辺市,中万呂37-1,0739-25-3050,0739-25-3051,10:00,19:00,地上２階,年中無休,◎一般駐車場　有り：８０台,大規模小売店舗,33.73786268,135.400021137,,
31229,31229,ミドリ明洋店,田辺市元町991,4,和歌山県,田辺市,元町991,0739-24-7556,0739-25-1982,7:00,22:00,地上１階,年中無休,◎一般駐車場　有り：２０台,大規模小売店舗,33.734277939,135.364077146,,
31230,31230,サンズ万呂店,田辺市上万呂118-1,4,和歌山県,田辺市,上万呂118-1,0739-24-8739,0739-24-8739,8:00,22:00,地上１階,1/1〜3,◎一般駐車場　有り：２０台,大規模小売店舗,33.734070071,135.406584181,,
31231,31231,食鮮館Aコープいなり店,田辺市稲成町3197,4,和歌山県,田辺市,稲成町3197,0739-24-9200,0739-24-9988,10:00,19:00,,,◎一般駐車場　有り：６７台,大規模小売店舗,33.743405377,135.376416009,,
31232,31232,ベイマルチョウ,田辺市稲成町230-3,4,和歌山県,田辺市,稲成町230-3,0739-26-6300,0739-24-8388,9:30,20:30,,火曜,◎一般駐車場　有り：３４台,大規模小売店舗,33.740903769,135.375331736,,
31233,31233,オーシティー田辺店,田辺市東山1丁目5-1,4,和歌山県,田辺市,東山1丁目5-1,0739-24-0410,0739-24-9995,10:00,20:00,地上３階,年中無休,◎一般駐車場　有り：５００台<br>◎障害者用駐車場　有り：５台,大規模小売店舗,33.729325922,135.389110988,,
31234,31234,パビリオンシティーオーク,田辺市稲成町3165,4,和歌山県,田辺市,稲成町3165,0739-26-3700,0739-26-4700,10:00,21:00,地上４階,木曜,◎一般駐車場　有り：６２０台<br>◎障害者用駐車場　有り：６台,大規模小売店舗,33.744077287,135.375889154,,
31235,31235,和歌山日産自動車（株）田辺店,田辺市元町1146-2,4,和歌山県,田辺市,元町1146-2,0739-22-5217,0739-24-8527,9:30,18:00,地上２階,第2水曜,◎一般駐車場　有り：５台,大規模小売店舗,33.735723547,135.363855478,,
31236,31236,ローソンたきない町店,田辺市たきない町2974-135,4,和歌山県,田辺市,たきない町2974-135,0739-26-2489,,0:00,24:00,地上１階,なし,◎一般駐車場　有り：１３台,大規模小売店舗,33.702465013,135.401149807,,
31237,31237,ローソン内之浦北店,田辺市新庄字北内之浦3021-4,4,和歌山県,田辺市,新庄字北内之浦3021-4,0739-22-4633,,0:00,24:00,地上１階,なし,◎一般駐車場　有り：１６台,大規模小売店舗,33.702789266,135.395659358,,
31238,31238,オークワ新宮,新宮市新宮418-1,4,和歌山県,新宮市,新宮418-1,0735-21-2261,0735-21-3240,10:00,20:00,地上６階,年中無休,◎一般駐車場　有り：３００台,大規模小売店舗,33.727724262,135.990875478,,
31239,31239,オーマート新宮店,新宮市下田2-2-18,4,和歌山県,新宮市,下田2-2-18,0735-21-1300,,10:00,20:00,地上１階,年24回,◎一般駐車場　有り：１００台,大規模小売店舗,33.717507408,135.992831889,,
31240,31240,オークワ野田店,新宮市野田8-47,4,和歌山県,新宮市,野田8-47,0735-22-0515,0735-22-6033,9:30,19:00,地上１階,年6回,◎一般駐車場　有り：４０台,大規模小売店舗,33.721742195,135.994554219,,
31241,31241,ジャスコ(株)新宮店,新宮市橋本2丁目14番23号,4,和歌山県,新宮市,橋本2丁目14番23号,0735-28-3111,0735-28-3115,10:00,20:00,地上５階,水曜日（年間24日）,◎一般駐車場　有り：１２６３台<br>◎障害者用駐車場　有り：１５台,大規模小売店舗,33.713525707,135.989289541,,
31242,31242,(有)須川家具,新宮市伊佐田2丁目-1-12,4,和歌山県,新宮市,伊佐田2丁目-1-12,0735-22-2276,0735-22-2276,9:00,20:00,地上３階,なし,◎一般駐車場　有り：２台,大規模小売店舗,33.726771824,135.99325434,,
31243,31243,A-COOP下津店,海南市下津町小南127-1,4,和歌山県,海南市,下津町小南127-1,073-492-4461,073-492-4412,9:30,19:00,地上１階,水曜,◎一般駐車場　有り：７０台,大規模小売店舗,34.127812526,135.167784701,,
31244,31244,マツゲン下津店,海南市下津町丁字蔭ノ木65-5,4,和歌山県,海南市,下津町丁字蔭ノ木65-5,073-492-1403,073-492-3880,9:00,21:00,地上２階（店舗は１階）,なし,◎一般駐車場　有り：８０台<br>◎障害者用駐車場　有り：２台,大規模小売店舗,34.120715577,135.155110475,,
31245,31245,ショッピングセンターマミー野上店,海草郡紀美野町動木314-2,4,和歌山県,海草郡紀美野町,動木314-2,073-489-5880,073-489-5890,9:00,23:00,地上１階,年中無休,◎一般駐車場　有り：６５台,大規模小売店舗,34.168060294,135.306633739,,
31246,31246,ミドリ美浜店,日高郡美浜町田井426-2,4,和歌山県,日高郡美浜町,田井426-2,0738-23-1661,0738-23-4717,9:00,21:00,地上１階,火曜（不定期）,◎一般駐車場　有り：８０台,大規模小売店舗,33.886759015,135.151818797,,
31247,31247,千寿堂美浜店,日高郡美浜町吉原890-39,4,和歌山県,日高郡美浜町,吉原890-39,0738-23-5566,0738-23-5568,9:00,22:00,地上１階,年中無休,◎一般駐車場　有り：３４台,大規模小売店舗,33.892813564,135.138681009,,
31248,31248,Ａコープひだか,日高郡日高町荊木5,4,和歌山県,日高郡日高町,荊木5,0738-63-2111,0738-63-3288,9:30,19:00,地上２階,年中無休,◎一般駐車場　有り：２０台,大規模小売店舗,33.924123234,135.144383813,,
31249,31249,Ａコープゆら店,日高郡由良町里279番地-1,4,和歌山県,日高郡由良町,里279番地-1,0738-65-3121,0738-65-3123,9:30,19:30,地上１階,年中無休,◎一般駐車場　有り：５５台<br>◎障害者用駐車場　有り：１台,大規模小売店舗,33.960139491,135.122153904,,
31250,31250,美月荘,日高郡由良町門前431,4,和歌山県,日高郡由良町,門前431,0738-65-0255,0738-65-0358,9:00,21:00,地上２階,年中無休,◎一般駐車場　有り：３０台,大規模小売店舗,33.970416292,135.12968093,,
31251,31251,Ａコープかわべ店,日高郡日高川町土生102-1,4,和歌山県,日高郡日高川町,土生102-1,0738-23-5538,0738-23-5540,9:30,19:00,地上１階,年中無休,◎一般駐車場　有り,大規模小売店舗,33.912229209,135.183065921,,
31252,31252,レストランかどや,日高郡印南町島田1165-1,4,和歌山県,日高郡印南町,島田1165-1,0738-43-0231,0738-43-1272,9:00,18:00,地上２階,月2回水曜日,◎一般駐車場　有り：５０台,大規模小売店舗,33.796658625,135.240091417,,
31253,31253,Ａコープいなみ,日高郡印南町印南2004,4,和歌山県,日高郡印南町,印南2004,0738-42-1277,0738-42-1279,9:30,19:00,地上１階,年中無休,◎一般駐車場　有り：４０台,大規模小売店舗,33.817711385,135.21812016,,
31254,31254,コーナンホームストック南部店,日高郡みなべ町気佐藤173-27,4,和歌山県,日高郡みなべ町,気佐藤173-27,0739-84-3160,0739-84-3162,9:00,20:00,地上１階,なし,◎一般駐車場　有り：６０台<br>◎障害者用駐車場　有り：１台,大規模小売店舗,33.774902141,135.32016467,,
31255,31255,オークワ打田店,紀の川市打田1364-1,4,和歌山県,紀の川市,打田1364-1,0736-77-7091,0736-77-7094,10:00,23:00,地上１階,土、日、祝日,◎一般駐車場　有り：２００台,大規模小売店舗,34.26157775,135.363487416,,
31256,31256,Ａコープ打田店,紀の川市西大井419-1,4,和歌山県,紀の川市,西大井419-1,0736-77-6885,0736-77-6369,9:00,19:00,地上２階,土、日、祝日,◎一般駐車場　有り：３０台,大規模小売店舗,34.26919184,135.360795504,,
31257,31257,ＪＡ紀ノ里ファーマーズマーケット,紀の川市豊田字塚56-3、56-8,4,和歌山県,紀の川市,豊田字塚56-3、56-8,0736-77-3715,,9:00,17:00,地上１階,火曜日,◎一般駐車場　有り：１００台<br>◎障害者用駐車場　有り：２台,大規模小売店舗,34.278186863,135.352238039,,
31258,31258,オークワオーストリート紀の川井阪店,紀の川市大字下井阪字三ッ塚493-1他26筆,4,和歌山県,紀の川市,大字下井阪字三ッ塚493-1他26筆,0736-77-0400,0736-77-0409,9:00,20:00,地上１階,なし,◎一般駐車場　有り：６５０台<br>◎障害者用駐車場　有り：８台,大規模小売店舗,34.25956815,135.340138231,,
31259,31259,オークワ粉河店,紀の川市粉河762,4,和歌山県,紀の川市,粉河762,0736-73-8260,0736-73-8841,9:30,20:00,地上１階,年中無休（但し年６回あり）,◎一般駐車場　有り：２３０台<br>◎障害者用駐車場　有り：５台,大規模小売店舗,34.267632708,135.405706374,,
31260,31260,すずき,紀の川市東野71-1,4,和歌山県,紀の川市,東野71-1,0736-73-3219,0736-73-2329,9:00,20:00,地上１階,日曜,◎一般駐車場　有り：８台,大規模小売店舗,34.269688347,135.418705082,,
31261,31261,ＫＳマートちからや,紀の川市粉河1805,4,和歌山県,紀の川市,粉河1805,0736-73-5890,,7:30,19:30,地上１階,日曜,◎一般駐車場　有り：３台,大規模小売店舗,34.274548636,135.403595182,,
31262,31262,スーパー松源,紀の川市粉河785,4,和歌山県,紀の川市,粉河785,0736-73-5706,0736-73-5707,9:30,18:00,地上２階,年中無休,◎一般駐車場　有り：８０台,大規模小売店舗,34.269243583,135.404873101,,
31263,31263,コーナンホームストック粉河店,紀の川市粉河936,,,,,,,,,,,,,,,,
31264,31264,オークワ那賀丸井店,紀の川市名手西野363-1,4,和歌山県,紀の川市,名手西野363-1,0736-75-5463,,9:30,23:00,地上１階,年中無休,◎一般駐車場　有り：５０台,大規模小売店舗,34.272243804,135.431592628,,
31265,31265,オークワ桃山店,紀の川市桃山町最上153-1,4,和歌山県,紀の川市,桃山町最上153-1,0736-66-1100,0736-66-1882,10:00,23:00,地上１階,年末年始,◎一般駐車場　有り：９０台<br>◎障害者用駐車場　有り：５台,大規模小売店舗,34.239302018,135.343350533,,
31266,31266,オークワ貴志川店,紀の川市貴志川町神戸２０５-１,4,和歌山県,紀の川市,貴志川町神戸２０５-１,0736-64-7778,0736-64-8777,0:00,24:00,地上１階,水曜日,◎一般駐車場　有り：１７５台<br>◎障害者用駐車場　有り：３台,大規模小売店舗,34.21763742,135.31521533,,
31267,31267,(株)松源貴志川店,紀の川市前田160,4,和歌山県,紀の川市,前田160,0736-64-6920,0736-64-6921,9:00,21:00,地上１階,なし,◎一般駐車場　有り：９０台<br>◎障害者用駐車場　有り：２台,大規模小売店舗,34.219914923,135.314854218,,
31268,31268,イオン(株)マックスバリュ貴志川店,紀の川市貴志川町神戸218,4,和歌山県,紀の川市,貴志川町神戸218,0736-65-2210,0736-64-4203,9:00,23:00,地上１階,なし,◎一般駐車場　有り：４００台<br>◎障害者用駐車場　有り：１０台,大規模小売店舗,34.216804252,135.3165763,,
31269,31269,スーパーサンキョー岩出店,岩出市相谷1-1,4,和歌山県,岩出市,相谷1-1,0736-62-3914,0736-62-9229,9:30,20:00,地上１階,年中無休,◎一般駐車場　有り：５２台,大規模小売店舗,34.277519758,135.289189412,,
31270,31270,スーパーNEGORO,岩出市根来2-1,4,和歌山県,岩出市,根来2-1,0736-62-2626,0736-62-6370,9:30,21:00,地上２階,年中無休,◎一般駐車場　有り：８５台<br>◎障害者用駐車場　有り：１台,大規模小売店舗,34.277825473,135.310658974,,
31271,31271,ビックハウス,岩出市今中119-1,4,和歌山県,岩出市,今中119-1,0736-63-1616,,9:00,20:00,地上１階,木曜(隔週),◎一般駐車場　有り：３２０台<br>◎障害者用駐車場　有り：３台,大規模小売店舗,34.271964902,135.316075096,,
31272,31272,(有)荒尾成文堂アラオ岩出店,岩出市備前64-3,4,和歌山県,岩出市,備前64-3,0736-69-2260,0736-69-2261,10:00,23:00,地上２階,なし（年中無休）,◎一般駐車場　有り：２０台<br>◎障害者用駐車場　有り：１台,大規模小売店舗,34.260799214,135.311381459,,
31273,31273,はるやま,岩出市備前52-1,4,和歌山県,岩出市,備前52-1,0736-63-2456,0736-62-9044,10:00,20:00,地上１階,年７日,◎一般駐車場　有り：２０台<br>◎障害者用駐車場　有り：１台,大規模小売店舗,34.260120684,135.312299663,,
31274,31274,(株)東洋薬局岩出店,岩出市川尻157-1,4,和歌山県,岩出市,川尻157-1,0736-69-2523,0736-69-2524,10:00,20:00,地上１階,1月1日のみ,◎一般駐車場　有り：３９台<br>◎障害者用駐車場　有り：１台,大規模小売店舗,34.268546604,135.315210857,,
31275,31275,(株)松源岩出店,岩出市大町58-1,4,和歌山県,岩出市,大町58-1,0736-61-7200,0736-61-7211,9:30,21:00,地上１階,なし,◎一般駐車場　有り：１２０台<br>◎障害者用駐車場　有り：２台,大規模小売店舗,34.258785247,135.321519186,,
31276,31276,メッサオークワ岩出西店,岩出市中黒641-1,4,和歌山県,岩出市,中黒641-1,0736-61-3200,0736-61-3211,9:00,21:00,地上１階,なし,◎一般駐車場　有り：２５０台<br>◎障害者用駐車場　有り：５台,大規模小売店舗,34.264576521,135.287106384,,
31277,31277,スーパーオートバックス岩出店,岩出市西野30,4,和歌山県,岩出市,西野30,0736-62-7650,0736-62-7685,10:00,20:00,地上２階,なし,◎一般駐車場　有り：１５０台<br>◎障害者用駐車場　有り：２台,大規模小売店舗,34.260120651,135.305407175,,
31278,31278,オークワ　ミレニアシティ岩出店,岩出市中迫字塚本147,4,和歌山県,岩出市,中迫字塚本147,0736-69-1096,0736-69-1096,9:00,20:00,地上４階,なし,◎一般駐車場　有り：１０００台<br>◎障害者用駐車場　有り：１１台,大規模小売店舗,34.260604844,135.315297591,,
31279,31279,和歌山トヨペット岩出営業所,岩出市大字中島867-2、869,4,和歌山県,岩出市,大字中島867-2、869,0736-63-1101,0736-62-5649,9:30,18:00,地上１階,第１水曜日,◎一般駐車場　有り：９台<br>◎障害者用駐車場　有り：１台,大規模小売店舗,34.259360694,135.30032138,,
31280,31280,Ｖショップ桟橋店,西牟婁郡白浜町3744,4,和歌山県,西牟婁郡白浜町,3744,0739-43-2793,0739-43-5579,8:00,22:00,地上１階,年中無休,◎一般駐車場　有り：２９台,大規模小売店舗,33.687396042,135.356108374,,
31281,31281,グルメシティ近畿,西牟婁郡白浜町1349-1,4,和歌山県,西牟婁郡白浜町,1349-1,0739-42-3144,0739-42-3145,7:00,21:00,地上２階,年間24日（火曜不定期）,◎一般駐車場　有り：２０台,大規模小売店舗,33.684285406,135.345498307,,
31282,31282,Ａコープ紀南あぜみち,西牟婁郡白浜町栄691,4,和歌山県,西牟婁郡白浜町,栄691,0739-45-2780,0739-45-2782,9:00,19:00,地上１階,元旦,◎一般駐車場　有り：５０台,大規模小売店舗,33.651974077,135.395604287,,
31283,31283,(株)たかすバリューハウス西富田店,西牟婁郡白浜町堅田字東條646他,4,和歌山県,西牟婁郡白浜町,堅田字東條646他,0739-45-2255,0739-45-2685,10:00,22:00,地上１階,なし,◎一般駐車場　有り<br>◎障害者用駐車場　有り,大規模小売店舗,33.665862756,135.386342592,,
31284,31284,コーナンホームストック白浜店,西牟婁郡白浜町堅田2396-12,4,和歌山県,西牟婁郡白浜町,堅田2396-12,0739-82-1231,0739-82-1217,9:30,20:00,,年３回（不定期）,◎一般駐車場　有り：５０台<br>◎障害者用駐車場　有り：１台,大規模小売店舗,33.679335941,135.36934512,,
31285,31285,コメリハート＆グリーン白浜店,西牟婁郡白浜町大字栄字小森595他,4,和歌山県,西牟婁郡白浜町,大字栄字小森595他,0739-45-8610,0739-45-8612,9:30,20:00,地上１階,元旦及び半年に一度棚卸の時（不確定）,◎一般駐車場　有り：２１台<br>◎障害者用駐車場　有り：１台,大規模小売店舗,33.65278556,135.39554398,,
31286,31286,ふるさとセンター大塔,田辺市鮎川1000,4,和歌山県,田辺市,鮎川1000,0739-49-0143,,10:00,17:30,地上２階,火曜,◎一般駐車場　有り：１７台,大規模小売店舗,33.742651292,135.501824506,,
31287,31287,ドラッグストアキリン,西牟婁郡上富田町朝来,4,和歌山県,西牟婁郡上富田町,朝来,0739-47-1511,0739-47-1116,9:00,22:00,地上１階,年中無休,◎一般駐車場　有り：１５台,大規模小売店舗,33.696201639,135.418214219,,
31288,31288,上富田町農協Ａコープ上富田アピア,西牟婁郡上富田町朝来1401-1,4,和歌山県,西牟婁郡上富田町,朝来1401-1,0739-47-1070,0739-47-3605,9:30,19:00,地上２階,年始1日のみ,◎一般駐車場　有り：２００台,大規模小売店舗,33.694368584,135.417964255,,
31289,31289,ホームストックコーナン上富田店,西牟婁郡上富田町岩田字尾崎2350-1他,4,和歌山県,西牟婁郡上富田町,岩田字尾崎2350-1他,0739-83-2857,0739-83-2860,9:30,20:00,地上１階,なし,◎一般駐車場　有り：３０台<br>◎障害者用駐車場　有り：１台,大規模小売店舗,33.702895346,135.435101428,,
31290,31290,ローソン上富田岩崎店,西牟婁郡上富田町岩崎150-1,4,和歌山県,西牟婁郡上富田町,岩崎150-1,0739-47-4481,,0:00,24:00,地上１階,なし,◎一般駐車場　有り：１５台,大規模小売店舗,33.681581683,135.408497821,,
31291,31291,オークワ日置店,西牟婁郡白浜町日置45,4,和歌山県,西牟婁郡白浜町,日置45,0739-52-3213,0739-52-3554,9:00,0:00,地上１階,元旦,◎一般駐車場　有り：７０台<br>◎障害者用駐車場　有り：１台,大規模小売店舗,33.569578233,135.44951708,,
31292,31292,オークワ日置店,西牟婁郡白浜町日置45,4,和歌山県,西牟婁郡白浜町,日置45-1,0739-52-3213,,9:30,21:00,地上１階,年中無休,◎一般駐車場　有り：８６台,大規模小売店舗,33.569578233,135.44951708,,
31293,31293,コメリハート＆グリーン日置川店,西牟婁郡白浜町日置字中津川974-1,4,和歌山県,西牟婁郡白浜町,日置字中津川974-1,0739-87-2155,0739-87-2157,9:30,20:00,地上１階,なし,◎一般駐車場　有り：２０台<br>◎障害者用駐車場　有り：１台,大規模小売店舗,33.568081374,135.439137541,,
31294,31294,オークワすさみ店,西牟婁郡すさみ町周参見3766,4,和歌山県,西牟婁郡すさみ町,周参見3766,0739-85-2220,,9:00,22:00,地上１階,,◎一般駐車場　有り：６０台<br>◎障害者用駐車場　有り：２台,大規模小売店舗,33.553819488,135.497035811,,
31295,31295,黒島茶屋,西牟婁郡すさみ町見老津字長井4-4,4,和歌山県,西牟婁郡すさみ町,見老津字長井4-4,0739-55-3095,,9:00,18:00,地上１階,木曜,◎一般駐車場　有り：３３台,大規模小売店舗,33.514933153,135.559699707,,
31296,31296,オークワ串本店,東牟婁郡串本町串本40-22,4,和歌山県,東牟婁郡串本町,串本40-22,0735-62-0312,0735-62-4119,9:00,23:00,地上２階,年中無休,◎一般駐車場　有り：２５０台,大規模小売店舗,33.476272157,135.783242821,,
31297,31297,AコープVASEO,東牟婁郡串本町串本１５５１−１,4,和歌山県,東牟婁郡串本町,串本１５５１−１,0735-69-2222,0735-65-0536,9:00,20:00,地上１階,なし,◎一般駐車場　有り：５０台<br>◎障害者用駐車場　有り：２台,大規模小売店舗,33.462659742,135.781690185,,
31298,31298,コーナンホームストック串本店,東牟婁郡串本町串本2300-1,4,和歌山県,東牟婁郡串本町,串本2300-1,0735-69-1055,,10:00,20:00,地上１階,なし,◎一般駐車場　有り：３８台<br>◎障害者用駐車場　有り：１台,大規模小売店舗,33.479841223,135.788485507,,
31299,31299,ＷＡＹ串本,東牟婁郡串本町串本2079-1,4,和歌山県,東牟婁郡串本町,串本2079-1,0735-62-3961,0735-62-3029,9:30,23:00,地上１階,なし,◎一般駐車場　有り：７５台<br>◎障害者用駐車場　有り：１台,大規模小売店舗,33.476231365,135.784185509,,
31300,31300,オークワ串本店（ダイソー館）,東牟婁郡串本町串本2001,4,和歌山県,東牟婁郡串本町,串本2001,0735-62-0312,0735-62-4119,9:00,22:00,地上１階,なし,◎一般駐車場　有り：３５台（オークワ共有）<br>◎障害者用駐車場　有り：１台,大規模小売店舗,33.476674915,135.783541395,,
31301,31301,勝浦オークワ,東牟婁郡那智勝浦町朝日１丁目222-5,4,和歌山県,東牟婁郡那智勝浦町,朝日１丁目222-5,07355-2-1623,07355-2-6141,10:00,20:00,地上３階,年中無休,◎一般駐車場　有り：１５０台,大規模小売店舗,33.630689628,135.936163914,,
31302,31302,オークワ北浜店,東牟婁郡那智勝浦町北浜１丁目19,4,和歌山県,東牟婁郡那智勝浦町,北浜１丁目19,07355-2-0319,7355-2-6281,10:00,22:00,地上２階,年中無休,◎一般駐車場　有り：２４台,大規模小売店舗,33.631037737,135.943262102,,
31303,31303,オークワ下里店,東牟婁郡那智勝浦町下里509-1,4,和歌山県,東牟婁郡那智勝浦町,下里509-1,07355-8-1333,07355-8-1420,9:30,20:00,地上１階,年中無休,◎一般駐車場　有り：２９台,大規模小売店舗,33.581826782,135.920415656,,
31304,31304,那智ねぼけ堂,東牟婁郡那智勝浦町市野々3434-1,4,和歌山県,東牟婁郡那智勝浦町,市野々3434-1,07355-5-0031,07355-5-0559,8:00,17:00,地上２階,年中無休,◎一般駐車場　有り：１００台,大規模小売店舗,33.666738218,135.905974276,,
31305,31305,蓬莱閣,東牟婁郡那智勝浦町那智山456,4,和歌山県,東牟婁郡那智勝浦町,那智山456,07355-5-0341,07355-5-0343,8:00,17:30,地上５階,年中無休,◎一般駐車場　有り：１００台,大規模小売店舗,33.669979255,135.892878217,,
31306,31306,Ａコープ那智,東牟婁郡那智勝浦町天満1733,4,和歌山県,東牟婁郡那智勝浦町,天満1733,07355-2-0900,07355-2-0757,9:30,19:00,地上１階,土、日、祝日,◎一般駐車場　有り：１００台,大規模小売店舗,33.640102906,135.931361349,,
31307,31307,那智かまぼこセンター,東牟婁郡那智勝浦町市野々３９１７,4,和歌山県,東牟婁郡那智勝浦町,市野々３９１７,0735-55-0088（代）<br>フリーダイヤル0120-090588,0735-55-0181,8:00,17:00,地上１階,,◎一般駐車場　有り：３１台,大規模小売店舗,33.664210802,135.908946239,,
31308,31308,コメリＨＧ那智勝浦店,東牟婁郡那智勝浦町下里541-1,4,和歌山県,東牟婁郡那智勝浦町,下里541-1,0735-58-8030,0735-58-8057,9:00,20:00,地上１階,年３回、正月,◎一般駐車場　有り：２３台<br>◎障害者用駐車場　有り：１台,大規模小売店舗,33.582546201,135.920609815,,
31309,31309,ミスタージョン串本店,東牟婁郡串本町姫字ゴウラ718-14,4,和歌山県,東牟婁郡串本町,姫字ゴウラ718-14,0735-72-1966,,10:00,20:00,地上１階,年４回,◎一般駐車場　有り：８２台<br>◎障害者用駐車場　有り：２台,大規模小売店舗,33.494726206,135.796331366,,
31310,31310,オークワ古座川店,東牟婁郡古座川町高池64,4,和歌山県,東牟婁郡古座川町,高池64,07357-2-0067,07357-2-3210,9:30,21:00,地上１階,年6回,◎一般駐車場　有り：３９台,大規模小売店舗,33.524670495,135.821457125,,
31311,31311,北山村観光センター,東牟婁郡北山村大字下尾井字浦地,4,和歌山県,東牟婁郡北山村,大字下尾井字浦地,0735-49-2324,0735-49-2317,0:00,24:00,地上１階,（シーズン中5月〜9月）なし<br>（シーズンオフ)土・日曜日,◎一般駐車場　有り：７０台,大規模小売店舗,33.939205589,135.946406239,,
31312,31312,ヤマダ電機テックランド和歌山店,和歌山市三葛339-1,4,和歌山県,和歌山市,三葛339-1,073-441-5860,,10:30,21:00,,なし,◎一般駐車場　有り：２００台<br>◎障害者用駐車場　有り：３台,大規模小売店舗,34.193832452,135.184889221,,
31313,31313,スーパーサンワ楠見店,和歌山市楠見中24-8-9-28,4,和歌山県,和歌山市,楠見中24-8-9-28,073-454-0038,,9:00,21:00,地上２階,なし,◎一般駐車場　有り：７３台<br>◎障害者用駐車場　有り：１台,大規模小売店舗,34.253118978,135.176153757,,
31314,31314,ホームセンターコーナン御坊インター店,御坊市野口字堤578-1,4,和歌山県,御坊市,野口字堤578-1,0738-32-3055,,9:00,21:00,地上１階,なし,◎一般駐車場　有り：３５０台<br>◎障害者用駐車場　有り：２台,大規模小売店舗,33.899156351,135.179932038,,
31315,31315,業務スーパー＆産直市場よってって岩出店,岩出市中島751-1,4,和歌山県,岩出市,中島751-1,0736-69-0025,,9:30,19:30,地上１階,なし,◎一般駐車場　有り：９０台<br>◎障害者用駐車場　有り：１台,大規模小売店舗,34.262860321,135.294138127,,
31316,31316,ヤマダ電機テックランド和歌山岩出店,岩出市中島780-1,4,和歌山県,岩出市,中島780-1,0736-69-5461,,10:15,21:00,地上３階,なし,◎一般駐車場　有り：２７７台<br>◎障害者用駐車場　有り：５台,大規模小売店舗,34.261732114,135.292751887,,
31317,31317,ＪＯＳＨＩＮ　ＰＩＴＯＮＥ　和歌山店,和歌山市中島字西ノ浜３６８番地他,4,和歌山県,和歌山市,中島字西ノ浜３６８番地他,073-425-1414,,10:00,21:00,地上２階,無し,◎一般駐車場　有り：１２０台<br>◎障害者用駐車場　有り：２台,大規模小売店舗,34.205886022,135.185087502,,
31318,31318,ＭＥＳＡオークワ　ジストシネマ10,和歌山市松江向鵜ノ島1469番12,4,和歌山県,和歌山市,松江向鵜ノ島1469番12,073-480-5600,,0:00,24:00,地上２階,年中無休,◎一般駐車場　有り：１２００台<br>◎障害者用駐車場　有り：９台,大規模小売店舗,34.239242993,135.153450678,,
31319,31319,ホームセンターコーナン和歌山中之島店,和歌山市納定字西ノ芝100-1,4,和歌山県,和歌山市,納定字西ノ芝100-1,073-402-0350,,9:00,21:00,地上２階,無し,◎一般駐車場　有り：７５９台<br>◎障害者用駐車場　有り：８台,大規模小売店舗,34.238271423,135.189031158,,
31320,31320,アプライド　和歌山店,和歌山市美園町4丁目23-1他,4,和歌山県,和歌山市,美園町4丁目23-1他,073-425-5585,,10:30,19:30,地上３階,無し,◎一般駐車場　有り：５６台<br>◎障害者用駐車場　有り：１台,大規模小売店舗,34.230133313,135.189058976,,
31321,31321,スーパーセンターオークワ　上富田店,西牟婁郡上富田町朝来字坊垣内146-3他,4,和歌山県,西牟婁郡上富田町,朝来字坊垣内146-3他,0739-47-6800,,9:00,22:00,地上１階,無し,◎一般駐車場　有り：１８０台<br>◎障害者用駐車場　有り：２台,大規模小売店舗,33.698201456,135.426935574,,
31322,31322,ジップ・ドラッグ東洋　橋本隅田店,橋本市隅田町垂井字露無5-1他,4,和歌山県,橋本市,隅田町垂井字露無5-1他,0736-39-0881,,10:00,21:00,地上１階,無し,◎一般駐車場　有り：４１台<br>◎障害者用駐車場　有り：１台,大規模小売店舗,34.329823476,135.649294509,,
31323,31323,スーパーセンターオークワ南紀店,新宮市佐野3-11-19,4,和歌山県,新宮市,佐野3-11-19,0735-31-3500,,9:00,24:00,地上１階,なし,◎一般駐車場　有り：２１４１台<br>◎障害者用駐車場　有り：４台,大規模小売店舗,33.675821771,135.968857446,,
31324,31324,ケーズデンキ新宮パワフル館,新宮市佐野3-11-19,4,和歌山県,新宮市,佐野3-11-19,0735-31-7480,,10:00,20:00,地上１階,,◎一般駐車場　有り：２１４１台<br>◎障害者用駐車場　有り：２台,大規模小売店舗,33.673877625,135.969218659,,
31325,31325,紳士服はるやま　新宮店,新宮市佐野3-11-19,4,和歌山県,新宮市,佐野3-11-19,0735-31-2008,,10:00,20:00,地上２階,,◎一般駐車場　有り：２１４１台<br>◎障害者用駐車場　有り：２台,大規模小売店舗,33.67421088,135.969051967,,
31326,31326,Ｒｉｇｈｔ-Ｏｎ　南紀オークワ店,新宮市佐野3-11-19,4,和歌山県,新宮市,佐野3-11-19,0735-31-5142,,10:00,20:00,地上１階,,◎一般駐車場　有り：２１４１台<br>◎障害者用駐車場　有り：２台,大規模小売店舗,33.674460846,135.968940872,,
31327,31327,ユニクロ　新宮店,新宮市佐野3-11-19,4,和歌山県,新宮市,佐野3-11-19,0735-31-3320,,10:00,20:00,地上１階,,◎一般駐車場　有り：２１４１台<br>◎障害者用駐車場　有り：２台,大規模小売店舗,33.674933083,135.968774177,,
31328,31328,ホームセンターコーナン　海南店,海南市日方字新浜1294-10,4,和歌山県,海南市,日方字新浜1294-10,073-484-3651,,9:00,20:00,地上１階,,◎一般駐車場　有り：２００台<br>◎障害者用駐車場　有り：２台,大規模小売店舗,34.153588111,135.205336716,,
31329,31329,コメリＨＧ　三輪崎店,新宮市三輪崎永田1156,4,和歌山県,新宮市,三輪崎永田1156,0735-31-3778,,9:30,20:00,地上１階,,◎一般駐車場　有り：２０台<br>◎障害者用駐車場　有り：１台,大規模小売店舗,33.687237082,135.973856656,,
31330,31330,Ａコープ　ランティス,新宮市三輪崎永田1076-1,4,和歌山県,新宮市,三輪崎永田1076-1,0735-31-6577,,9:30,20:00,地上２階,,◎一般駐車場　有り：７０台<br>◎障害者用駐車場　有り：２台,大規模小売店舗,33.684459666,135.974940012,,
31331,31331,業務スーパー＆産直市場よってって,有田郡有田川町天満216-2,4,和歌山県,有田郡有田川町,天満216-2,0737-53-2888,,9:00,19:30,地上１階,,◎一般駐車場　有り：６０台<br>◎障害者用駐車場　有り：１台,大規模小売店舗,34.056518064,135.204060779,,
31332,31332,農業屋　橋本店,橋本市隅田町垂井61-5,4,和歌山県,橋本市,隅田町垂井61-5,0736-39-0710,0736-39-0711,9:00,19:00,9月,,11月）<br>9:00,大規模小売店舗,34.33082337,135.649155585,,
31333,31333,農業屋　かつらぎ店,伊都郡かつらぎ町笠田東92-12,4,和歌山県,伊都郡かつらぎ町,笠田東92-12,0736-23-2780,,9:00,18:30,地上１階,,◎一般駐車場　有り：２０台<br>◎障害者用駐車場　有り：１台,大規模小売店舗,34.289659479,135.482365381,,
31334,31334,業務スーパー　橋本店,橋本市隅田町中島84-1,4,和歌山県,橋本市,隅田町中島84-1,0736-32-6500,,9:30,20:00,地上２階,,◎一般駐車場　有り：５０台<br>◎障害者用駐車場　有り：１台,大規模小売店舗,34.328268035,135.646739312,,
31335,31335,スーパーサンワ舟津店,和歌山市湊御殿１−４−１,4,和歌山県,和歌山市,湊御殿１−４−１,073-428-1138,,9:30,21:00,地上２階,,◎一般駐車場　有り：１６０台<br>◎障害者用駐車場　有り：２台,大規模小売店舗,34.220669554,135.156594039,,
31336,31336,マーズスピード　ジャパン,岩出市根来６０７−１,4,和歌山県,岩出市,根来６０７−１,0736-69-5969,,10:00,20:00,地上４階,火曜日,◎一般駐車場　有り：２０台<br>◎障害者用駐車場　有り：１台,大規模小売店舗,34.274321081,135.311086771,,
31337,31337,テックランド和歌山橋本店,橋本市あやの台１丁目４番２,4,和歌山県,橋本市,あやの台１丁目４番２,0736-34-7100,,10:15,21:00,地上２階,,◎一般駐車場　有り：１１９台<br>◎障害者用駐車場　有り：１台,大規模小売店舗,34.338894106,135.649500557,,
31338,31338,コメリハードアンドグリーン金屋店,有田郡有田川町金屋字中ノ坪８７番地,4,和歌山県,有田郡有田川町,金屋字中ノ坪８７番地,0737-32-9131,,9:00,20:00,地上１階,,◎一般駐車場　有り：３０台<br>◎障害者用駐車場　有り：１台,大規模小売店舗,34.060002027,135.256181318,,
31339,31339,洋服の青山　和歌山紀ノ川店,和歌山市次郎丸１０３番１,4,和歌山県,和歌山市,次郎丸１０３番１,073-454-7145,,10:00,20:00,地上１階,なし,◎一般駐車場　有り：３７台<br>◎障害者用駐車場　有り：１台,大規模小売店舗,34.254185807,135.1462001,,
31340,31340,セブンイレブン和歌山塩屋店,和歌山市塩屋６丁目７２９−５,4,和歌山県,和歌山市,塩屋６丁目７２９−５,073-447-0400,,0:00,24:00,地上１階,無休,◎一般駐車場　有り：１４台<br>◎障害者用駐車場　有り：１台,大規模小売店舗,34.195942699,135.177171624,,
31341,31341,オートバックスわかやま北,和歌山市狐島２６２−２,4,和歌山県,和歌山市,狐島２６２−２,073-451-5656,,10:00,20:00,地上１階,なし,◎一般駐車場　有り：１００台<br>◎障害者用駐車場　有り：３台,大規模小売店舗,34.242714905,135.152089412,,
31342,31342,COOP岩出中央店,岩出市野上野９８−３,4,和歌山県,岩出市,野上野９８−３,0736-63-0200,,9:00,22:00,地上１階,なし,◎一般駐車場　有り：２６７台<br>◎障害者用駐車場　有り：６台,大規模小売店舗,34.274992343,135.317102724,,
31343,31343,コメリハード＆グリーン打田店,紀の川市東三谷字川端２４７−１,4,和歌山県,紀の川市,東三谷字川端２４７−１,0736-78-2890,,9:30,20:00,,なし,◎一般駐車場　有り：４０台<br>◎障害者用駐車場　有り：１台,大規模小売店舗,34.277853564,135.349710446,,
30544,30544,和歌山税務署,和歌山市湊通丁北1丁目1,1,和歌山県,和歌山市,湊通丁北1丁目1,073-424-2131,,8:30,17:00,地上３階,土、日、祝日、12/29〜1/3,◎一般駐車場　有り：１７台,官公庁舎等,34.22449457,135.1690051,,
30545,30545,和歌山県庁（本館）,和歌山市小松原通１丁目１,1,和歌山県,和歌山市,小松原通１丁目１,073-432-4111（大代表）,073-431-0232,9:00,17:45,地上４階、地下１階,土、日、祝、12/29〜31、1/2〜3,◎一般駐車場　有り：５４台<br>◎障害者用駐車場　有り：４台,官公庁舎等,34.22580671,135.1673367,,
30546,30546,和歌山市あいあいセンター,和歌山市小人町29,1,和歌山県,和歌山市,小人町29,073-431-5246,073-431-5248,9:00,21:00,地上７階、地下１階,月曜（祝祭日の場合翌日）,◎一般駐車場　有り：１６台<br>◎障害者用駐車場　有り：２台,官公庁舎等,34.23077167,135.1676163,,
30547,30547,和歌山市社会福祉会館,和歌山市八番丁４,1,和歌山県,和歌山市,八番丁４,073-431-5246(あいあいセンター事務所),073-431-5248(あいあいセンター事務所),9:00,22:00,地上４階,月曜（祝祭日の場合翌日）,◎一般駐車場　有り：２台,官公庁舎等,34.23113273,135.1678663,,
30548,30548,和歌山市役所,和歌山市七番丁23,1,和歌山県,和歌山市,七番丁23,073-432-0001(代),073-435-1259(管財課),8:30,17:15,地上１４階、地下２階,土、日、祝日,◎一般駐車場　有り：８０台<br>◎障害者用駐車場　有り：７台,官公庁舎等,34.23052167,135.1707827,,
30549,30549,和歌山西警察署,和歌山市吹上1-6-30,1,和歌山県,和歌山市,吹上1-6-30,073-424-0110,,0:00,24:00,地上３階、地下１階,なし,◎一般駐車場　有り：２１台<br>◎障害者用駐車場　有り：１台,官公庁舎等,34.22088393,135.1716993,,
30550,30550,日本電信電話(株)和歌山支店,和歌山市一番丁５,1,和歌山県,和歌山市,一番丁５,073-421-9205,073-435-2782,9:00,16:00,地上７階、地下２階,土、日、祝日、年末年始,◎一般駐車場　有り：１０台,官公庁舎等,34.22946636,135.1756711,,
30551,30551,和歌山市勤労者総合センター,和歌山市西汀丁３４,1,和歌山県,和歌山市,西汀丁３４,073-433-1800,,9:00,21:00,地上６階、地下１階,月曜日,◎一般駐車場　有り：８台<br>◎障害者用駐車場　有り：１台,官公庁舎等,34.23046618,135.1701716,,
30552,30552,和歌山地方検察庁,和歌山市二番丁3,1,和歌山県,和歌山市,二番丁3,073-422-4161,073-435-2221,8:30,17:00,地上３階,土、日、祝日,◎一般駐車場　有り：３２台<br>◎障害者用駐車場　有り：１台,官公庁舎等,34.22749428,135.1761155,,
30553,30553,和歌山地方裁判所,和歌山市二番丁1,1,和歌山県,和歌山市,二番丁1,073-428-9892,,8:30,17:15,地上2階,土、日、祝日,◎一般駐車場５０台程度<br>◎障害者用駐車場２台,官公庁舎等,34.22838305,135.1756156,,
30554,30554,和歌山東社会保険事務所,和歌山市太田544-1,1,和歌山県,和歌山市,太田544-1,073-474-1852,073-474-2838,9:00,17:00,地上２階,土、日、祝日,◎一般駐車場　有り：９台,官公庁舎等,34.23052242,135.1976695,,
30555,30555,和歌山公共職業安定所,和歌山市美園町５丁目4-7,1,和歌山県,和歌山市,美園町５丁目4-7,073-425-8609,073-424-3121,8:30,17:00,地上４階,土、日、祝日,◎障害者用駐車場　有り：３台,官公庁舎等,34.22943901,135.1901145,,
30556,30556,和歌山地方合同庁舎保護観察局,和歌山市二番丁2,1,和歌山県,和歌山市,二番丁2,073-422-5131,073-435-2460,9:00,17:00,地上７階、地下１階,土、日、祝日,◎一般駐車場　有り：７台<br>◎障害者用駐車場　有り：１台,官公庁舎等,34.22766096,135.1763099,,
30557,30557,和歌山地方合同庁舎地方法務局,和歌山市二番丁2,1,和歌山県,和歌山市,二番丁2,073-436-2501,073-435-2461,9:00,17:00,地上７階、地下１階,土、日、祝日,◎一般駐車場　有り：７台<br>◎障害者用駐車場　有り：１台,官公庁舎等,34.22766096,135.1763099,,
30558,30558,和歌山駅前交番,和歌山市美園町5丁目13-2,1,和歌山県,和歌山市,美園町5丁目13-2,東署管内,,0:00,24:00,地上２階,なし,,官公庁舎等,34.23209157,135.1906624,,
30559,30559,和歌山市役所西山東支所,和歌山市吉礼342-2,1,和歌山県,和歌山市,吉礼342-2,073-478-0007,,8:30,17:15,地上２階,土、日、祝日,◎一般駐車場　有り：５台,官公庁舎等,34.20080459,135.2410281,,
30560,30560,和歌山市役所和佐支所,和歌山市井ノ口255-1,1,和歌山県,和歌山市,井ノ口255-1,073-477-0001,,8:30,17:15,地上２階,土、日、祝日,◎一般駐車場　有り：７〜８台,官公庁舎等,34.23727318,135.2451662,,
30561,30561,和歌山市斎場,和歌山市南出島100-1,1,和歌山県,和歌山市,南出島100-1,073-471-2921,073-472-3890,10:00,17:30,地上１階,年7回,◎一般駐車場　有り：１００台<br>◎障害者用駐車場　有り：３台,官公庁舎等,34.21888478,135.1986974,,
30562,30562,和歌山県運転免許センター,和歌山市西１,1,和歌山県,和歌山市,西１,073-473-1721,073-473-1721,8:30,17:15,地上３階,土、祝日,◎一般駐車場　有り：２５０台<br>◎障害者用駐車場　有り：１台,官公庁舎等,34.20322042,135.2161411,,
30563,30563,和歌山市役所安原支所,和歌山市桑山38-1,1,和歌山県,和歌山市,桑山38-1,073-479-0001,,8:30,17:15,地上２階,土、日、祝日,◎一般駐車場　有り：８台,官公庁舎等,34.19163859,135.2215019,,
30564,30564,和歌山東警察署,和歌山市栗栖686-7,1,和歌山県,和歌山市,栗栖686-7,073-475-0110,,0:00,24:00,地上５階、地下１階,なし,◎一般駐車場　有り：３２台<br>◎障害者用駐車場　有り：１台,官公庁舎等,34.2344392,135.2150294,,
30565,30565,和歌山市役所小倉支所,和歌山市新庄45-2,1,和歌山県,和歌山市,新庄45-2,073-477-0415,,8:30,17:15,地上２階,土、日、祝日,◎一般駐車場　有り：３台,官公庁舎等,34.2444404,135.2874838,,
30566,30566,和歌山東公園体育館,和歌山市北出島133,1,和歌山県,和歌山市,北出島133,073-474-3331,073-475-2874,9:00,21:00,地上２階,水曜,◎一般駐車場　有り：１７０台<br>◎障害者用駐車場　有り：２台,官公庁舎等,34.21944029,135.1978086,,
30567,30567,和歌山北警察署,和歌山市松江北２丁目１番４１号,1,和歌山県,和歌山市,松江北２丁目１番４１号,073-453-0110,,0:00,24:00,地上３階,なし,◎一般駐車場　有り：２０台<br>◎障害者用駐車場　有り：１台,官公庁舎等,34.24819074,135.1376385,,
30568,30568,和歌山市役所加太支所,和歌山市加太2692,1,和歌山県,和歌山市,加太2692,073-459-0001,073-459-0001,8:30,17:15,地上２階,土、日、祝日,◎一般駐車場　有り：１０台,官公庁舎等,34.27526619,135.0769256,,
30569,30569,和歌山市役所直川支所,和歌山市直川1254,1,和歌山県,和歌山市,直川1254,073-461-0021,073-461-0021,8:15,17:15,地上２階,土、日、祝日,◎一般駐車場　有り：８台,官公庁舎等,34.26415878,135.2151401,,
30570,30570,和歌山市役所有功支所,和歌山市園部1456-1,1,和歌山県,和歌山市,園部1456-1,073-461-1540,073-461-6279,8:30,15:00,地上２階,土、日、祝日,◎一般駐車場　有り：２台,官公庁舎等,34.26375645,135.1974493,,
30571,30571,和歌山市立中央卸売市場,和歌山市西浜1660-401,1,和歌山県,和歌山市,西浜1660-401,073-431-3161,073-431-3164,8:30,17:15,地上３階,,◎一般駐車場　有り：２５００台,官公庁舎等,34.20930195,135.1487571,,
30572,30572,和歌山市役所和歌浦支所,和歌山市和歌浦西２丁目1-19,1,和歌山県,和歌山市,和歌浦西２丁目1-19,073-444-0001,073-444-0001,8:30,17:15,地上２階,土、日、祝日,◎一般駐車場　有り：１０台,官公庁舎等,34.19077639,135.1666172,,
30573,30573,近畿運輸局和歌山陸運支局,和歌山市湊1106-4,1,和歌山県,和歌山市,湊1106-4,073-422-2138,073-435-1771,9:00,16:00,地上２階,土、日、祝日,◎一般駐車場　有り：１００台<br>◎障害者用駐車場　有り：１台,官公庁舎等,34.21724545,135.1505622,,
30574,30574,和歌山西社会保険事務所,和歌山市関戸2丁目1-43,1,和歌山県,和歌山市,関戸2丁目1-43,073-447-1111,073-448-2341,9:00,17:45,地上２階,土、日、祝日,◎一般駐車場　有り：２１台,官公庁舎等,34.1974702,135.1684223,,
30575,30575,処理場管理センター（中央終末処理場）,和歌山市三葛510,1,和歌山県,和歌山市,三葛510,073-447-3331,073-447-3825,8:30,17:15,地上４階、地下１階,土、日、祝日,◎一般駐車場　有り：普通自動車８台、バス６台,官公庁舎等,34.19747047,135.1878931,,
30576,30576,和歌山県子ども・障害者相談センター,和歌山市毛見琴ノ浦1437-218,1,和歌山県,和歌山市,毛見琴ノ浦1437-218,073-445-5311,073-446-0036,9:00,17:45,地上３階,土、日、祝日,◎一般駐車場　有り：３２台<br>◎障害者用駐車場　有り：２０台,官公庁舎等,34.15762831,135.1860823,,
30577,30577,(財)和歌山地域地場産業振興センター,和歌山市紀三井寺８５６,1,和歌山県,和歌山市,紀三井寺８５６,073-447-3334,073-445-8751,9:00,22:00,地上５階,無,◎一般駐車場　有り：１４０台,官公庁舎等,34.18566626,135.1851713,,
30578,30578,和歌山西警察署和歌浦交番,和歌山市和歌浦中３丁目1-17,1,和歌山県,和歌山市,和歌浦中３丁目1-17,073-424-0110,,0:00,24:00,地上２階,なし,◎一般駐車場　有り：３台<br>◎障害者用駐車場　有り：１台,官公庁舎等,34.19122865,135.1714964,,
30579,30579,かつらぎ町役場,伊都郡かつらぎ町丁ノ町2160,1,和歌山県,伊都郡かつらぎ町,丁ノ町2160,0736-22-0300,0736-22-6432,8:30,17:15,地上４階,土、日、祝日,◎一般駐車場　有り：６０台<br>◎障害者用駐車場　有り：２台,官公庁舎等,34.29643674,135.5037526,,
30582,30582,かつらぎ町佐野住民会館,伊都郡かつらぎ町佐野551,1,和歌山県,伊都郡かつらぎ町,佐野551,0736-22-4566,0736-22-4566,8:30,17:15,地上２階,土、日、祝日,◎一般駐車場　有り：５台<br>◎障害者用駐車場　有り,官公庁舎等,34.29557054,135.4881788,,
30583,30583,かつらぎ町笠田東町民会館,伊都郡かつらぎ町笠田東355,1,和歌山県,伊都郡かつらぎ町,笠田東355,0736-22-4764,,8:30,17:15,地上２階,土、日、祝日,◎一般駐車場　有り：７台<br>◎障害者用駐車場　有り,官公庁舎等,34.28512197,135.4779194,,
30584,30584,かつらぎ町地域福祉センター,伊都郡かつらぎ町丁ノ町2338-2,1,和歌山県,伊都郡かつらぎ町,丁ノ町2338-2,0736-22-4311,0736-22-6898,8:30,17:15,地上２階,土、日、祝日,◎一般駐車場　有り：３台<br>◎障害者用駐車場　有り：１台,官公庁舎等,34.29568684,135.5043081,,
30585,30585,妙寺区検察庁,伊都郡かつらぎ町妙寺538,1,和歌山県,伊都郡かつらぎ町,妙寺538,0736-22-0140,0736-22-0197,9:00,17:00,地上２階,土、日、祝日、12/29〜1/3,◎一般駐車場　有り：１０台<br>◎障害者用駐車場　有り：１台,官公庁舎等,34.2994087,135.5209456,,
30586,30586,妙寺簡易裁判所,伊都郡かつらぎ町妙寺111,1,和歌山県,伊都郡かつらぎ町,妙寺111,0736-22-0033,0736-22-0034,8:30,17:00,地上２階,土、日、祝日、12/29〜1/3,◎一般駐車場　有り：１３台<br>◎障害者用駐車場　有り：１台,官公庁舎等,34.29987398,135.526749,,
30587,30587,かつらぎ町防災センター,伊都郡かつらぎ町丁ノ町2337,1,和歌山県,伊都郡かつらぎ町,丁ノ町2337,0736-22-0300,,8:30,17:15,地上２階,土、日、祝日,◎一般駐車場　有り：８台<br>◎障害者用駐車場　有り：１台,官公庁舎等,34.29529799,135.5038637,,
30588,30588,伊都消防組合防災センター,伊都郡かつらぎ町妙寺126-12,1,和歌山県,伊都郡かつらぎ町,妙寺126-12,0736-22-0119,0736-22-1215,0:00,24:00,地上２階,年中無休,◎一般駐車場　有り：３０台,官公庁舎等,34.30135301,135.5292781,,
30589,30589,かつらぎ町保健福祉センター,伊都郡かつらぎ町丁ノ町2156-1,1,和歌山県,伊都郡かつらぎ町,丁ノ町2156-1,0736-22-0300,0736-22-2940,8:30,17:00,地上３階,土、日曜日,◎一般駐車場　有り：３５台<br>◎障害者用駐車場　有り：１台,官公庁舎等,34.29590901,135.5035859,,
30590,30590,橋本市役所高野口出張所,橋本市名倉1028-1,1,和歌山県,橋本市,名倉1028-1,0736-42-3311,0736-42-0888,8:30,17:15,地上３階,土、日、祝日,◎一般駐車場　有り：４８台<br>◎障害者用駐車場　有り：３台,官公庁舎等,34.3060472,135.5567482,,
30591,30591,高野口水道制御室,橋本市名古曽1391,1,和歌山県,橋本市,名古曽1391,0736-43-0053,0736-43-1020,8:30,17:15,地上２階,土、日、祝日、12/29〜1/3,◎一般駐車場　有り：１５台,官公庁舎等,34.31204661,135.5636363,,
30592,30592,伊都振興局健康福祉部,橋本市高野口町名古曽927,1,和歌山県,橋本市,高野口町名古曽927,0736-42-5440,0736-42-0886,9:00,17:45,地上２階,土、日、祝日、12/29〜1/3,◎一般駐車場　有り：２５台<br>◎障害者用駐車場　有り：２台,官公庁舎等,34.30226989,135.5588315,,
30593,30593,九度山町役場,伊都郡九度山町九度山1190,1,和歌山県,伊都郡九度山町,九度山1190,0736-54-2019,0736-54-2022,8:30,17:15,地上３階,土、日、祝日,◎一般駐車場　有り：５０台<br>◎障害者用駐車場　有り：３台,官公庁舎等,34.2871882,135.56222,,
30594,30594,九度山町ふるさとセンター,伊都郡九度山町九度山1190-1,1,和歌山県,伊都郡九度山町,九度山1190-1,0736-54-2019,0736-54-2022,8:30,21:30,地上５階,年末年始,◎一般駐車場　有り：３０台<br>◎障害者用駐車場　有り：１台,官公庁舎等,34.287241,135.5623144,,
30596,30596,高野町役場,伊都郡高野町高野山636,1,和歌山県,伊都郡高野町,高野山636,0736-56-2931,0736-56-4745,9:00,17:15,地上３階,土、日,◎一般駐車場　有り：１５台<br>◎障害者用駐車場　有り：２台,官公庁舎等,34.21605723,135.5865524,,
30598,30598,高野町保健福祉センター,伊都郡高野町高野山２６-８,1,和歌山県,伊都郡高野町,高野山２６-８,0736-56-3569,0734-56-5273,9:00,16:30,地上２階,役場と同じ,◎一般駐車場　有り：１１台<br>◎障害者用駐車場　有り：３台,官公庁舎等,34.22147337,135.5916908,,
30599,30599,かつらぎ町役場　花園支所,伊都郡かつらぎ町花園梁瀬645,1,和歌山県,伊都郡かつらぎ町,花園梁瀬645,0737-26-0321,0737-26-0323,8:30,17:15,地上３階,土、日、祝日,◎一般駐車場　有り：１０台,官公庁舎等,34.13704692,135.5160489,,
30600,30600,かつらぎ町高齢者生活福祉センター,伊都郡かつらぎ町花園梁瀬1581,1,和歌山県,伊都郡かつらぎ町,花園梁瀬1581,0737-26-0344,0737-26-0660,9:00,17:00,地上２階,土、日、祝日,◎一般駐車場　有り：５台,官公庁舎等,34.13792789,135.515199,,
30601,30601,湯浅町役場,有田郡湯浅町湯浅1055-9,1,和歌山県,有田郡湯浅町,湯浅1055-9,0737-63-2525,0737-63-3791,8:45,17:15,地上４階、地下１階,土、日、祝日,◎一般駐車場　有り：１０台,官公庁舎等,34.03313151,135.1785914,,
30602,30602,和歌山県有田総合庁舎,有田郡湯浅町湯浅2355-1,1,和歌山県,有田郡湯浅町,湯浅2355-1,0737-63-4111(代),0737-64-1256(総務課),9:00,17:45,地上３階,土、日、祝日,◎一般駐車場　有り：８０台<br>◎障害者用駐車場　有り：６台,官公庁舎等,34.03962005,135.1934343,,
30603,30603,湯浅税務署,有田郡湯浅町湯浅2430-76,1,和歌山県,有田郡湯浅町,湯浅2430-76,0737-63-5351,0737-63-5470,8:30,17:00,地上２階,土、日、祝日,◎一般駐車場　有り：１０台<br>◎障害者用駐車場　有り：１台,官公庁舎等,34.04183542,135.1821193,,
30604,30604,地方法務局湯浅出張所,有田郡湯浅町湯浅2430-93,1,和歌山県,有田郡湯浅町,湯浅2430-93,0737-62-2534,0737-62-2534,8:30,17:00,地上１階,土、日、祝日,◎一般駐車場　有り：１４台<br>◎障害者用駐車場　有り：１台,官公庁舎等,34.04227397,135.1823968,,
30605,30605,湯浅町文化福祉センター（図書館）,有田郡湯浅町湯浅1982,1,和歌山県,有田郡湯浅町,湯浅1982,0737-62-2280,,9:30,17:00,地上２階,第２・４土曜、第３日曜,◎一般駐車場　有り：１０台,官公庁舎等,34.03618003,135.1817591,,
30606,30606,湯浅町総合センター,有田郡湯浅町湯浅2707-1,1,和歌山県,有田郡湯浅町,湯浅2707-1,0737-63-4152,0737-63-3792,8:45,17:30,地上２階,土、日、祝日、12/28〜1/4,◎一般駐車場　有り：３２台,官公庁舎等,34.03907497,135.1762584,,
30610,30610,ＮＴＴ湯浅営業所,有田郡湯浅町湯浅1533-1,1,和歌山県,有田郡湯浅町,湯浅1533-1,0737-63-1611,0737-62-2742,9:00,16:00,地上３階,土、日、祝日,◎一般駐車場　有り：１２台,官公庁舎等,34.03579789,135.1820355,,
30611,30611,湯浅警察署,有田郡湯浅町湯浅1933,1,和歌山県,有田郡湯浅町,湯浅1933,0737-64-0110,,0:00,24:00,地上２階,なし,◎一般駐車場　有り：６台,官公庁舎等,34.03854761,135.1844796,,
30612,30612,湯浅公共職業安定所,有田郡湯浅町湯浅2430-81,1,和歌山県,有田郡湯浅町,湯浅2430-81,0737-63-1144,0737-62-5001,8:30,17:00,地上２階,土、日、祝日,◎一般駐車場　有り：７台<br>◎障害者用駐車場　有り：１台,官公庁舎等,34.04174153,135.181841,,
30613,30613,広川町役場,有田郡広川町広1500,1,和歌山県,有田郡広川町,広1500,0737-63-1122,0737-64-1565,8:30,17:30,地上３階,土、日、祝日,◎一般駐車場　有り：２台<br>◎障害者用駐車場　有り：１３４台,官公庁舎等,34.03002051,135.1729141,,
30614,30614,広川町民会館,有田郡広川町広572,1,和歌山県,有田郡広川町,広572,0737-63-2295,0737-63-5423,8:30,21:00,地上２階,なし,◎一般駐車場　有り：３８台,官公庁舎等,34.02377155,135.1768973,,
30615,30615,有田川町役場吉備庁舎,有田郡有田川町下津野2018-4,1,和歌山県,有田郡有田川町,下津野2018-4,0737-52-2111,0737-52-7821,8:30,17:00,地上４階,土、日、祝日,◎一般駐車場　有り：５１台<br>◎障害者用駐車場　有り：３台,官公庁舎等,34.05766575,135.2161969,,
30616,30616,きび会館,有田郡有田川町庄814-1,1,和歌山県,有田郡有田川町,庄814-1,0737-52-5859,0737-52-5860,8:30,22:00,地上２階,,◎一般駐車場　有り：５０台,官公庁舎等,34.07079439,135.232308,,
30618,30618,有田川町役場金屋庁舎,有田郡有田川町金屋3,1,和歌山県,有田郡有田川町,金屋3,0737-32-3111,0737-32-3575,8:30,17:00,地上３階,土、日、祝日,◎一般駐車場　有り：２００台<br>◎障害者用駐車場　有り：２台,官公庁舎等,34.06434007,135.2541572,,
30619,30619,有田川町金屋文化保健センター,有田郡有田川町金屋7,1,和歌山県,有田郡有田川町,金屋7,,,9:00,22:00,地上３階,,,官公庁舎等,34.06360223,135.2543344,,
30623,30623,有田川町役場清水行政局五郷出張所,有田郡有田川町川合247,1,和歌山県,有田郡有田川町,川合247,0737-22-0254,0737-22-0254,8:30,17:00,地上２階,土、日、祝日,◎一般駐車場　有り：１０台,官公庁舎等,34.05021645,135.3888047,,
30624,30624,有田川町役場清水行政局安諦出張所,有田郡有田川町板尾219-3,1,和歌山県,有田郡有田川町,板尾219-3,0737-26-0001,0737-26-0001,8:30,17:00,地上１階,土、日、祝日,◎一般駐車場　有り：１８台,官公庁舎等,34.11924504,135.4904282,,
30625,30625,美浜町役場,日高郡美浜町和田1138-278,1,和歌山県,日高郡美浜町,和田1138-278,0738-22-4123,0738-23-3523,8:30,17:15,地上３階,土、日、祝日、年末年始,◎一般駐車場　有り：４０台<br>◎障害者用駐車場　有り：１台,官公庁舎等,33.8938134,135.1331814,,
30626,30626,海南市役所,海南市日方1525-6,1,和歌山県,海南市,日方1525-6,073-482-4111,073-482-0099,8:30,17:15,地上６階,土、日、祝日、年末年始,◎一般駐車場　有り：１８台<br>◎障害者用駐車場　有り：１台,官公庁舎等,34.15531017,135.2091974,,
30627,30627,海南市野上支所,海南市野上中167-5,1,和歌山県,海南市,野上中167-5,073-487-0056,073-485-2002,8:30,17:15,地上２階,土、日、祝日、年末年始,◎一般駐車場　有り：１０台,官公庁舎等,34.16261629,135.2791086,,
30630,30630,和歌山地方法務局海南出張所,海南市船尾257-7,1,和歌山県,海南市,船尾257-7,073-482-0381,,8:30,17:00,地上２階,,◎一般駐車場　有り：７台<br>◎障害者用駐車場　有り：１台,官公庁舎等,34.1585038,135.1988929,,
30631,30631,海南公共職業安定所,海南市船尾186-85,1,和歌山県,海南市,船尾186-85,073-483-8609,073-482-4464,8:00,17:00,地上２階,土、日、祝日,◎一般駐車場　有り：３０台<br>◎障害者用駐車場　有り：１台,官公庁舎等,34.15817079,135.2073921,,
30632,30632,美浜町地域福祉センター,日高郡美浜町和田1138-326,1,和歌山県,日高郡美浜町,和田1138-326,0738-23-5393,0738-23-4300,8:30,17:15,地上３階,土、日、祝日（ヘルパーのみ土、日稼動）,,官公庁舎等,33.89381341,135.1341813,,
30634,30634,日高町役場,日高郡日高町高家626,1,和歌山県,日高郡日高町,高家626,0738-63-2051,0738-63-2923,8:30,17:30,地上３階,土、日、祝日、年末年始,◎一般駐車場　有り：２１台　◎障害者用駐車場　有り：１台,官公庁舎等,33.92569879,135.1410971,,
30636,30636,由良町役場,日高郡由良町里1220-1,1,和歌山県,日高郡由良町,里1220-1,0738-65-0200,0738-65-0282,8:30,17:15,地上４階,土、日、祝日,◎障害者用駐車場　有り：２台<br>◎一般駐車場　有り：３４台,官公庁舎等,33.95925066,135.1182097,,
30638,30638,由良町地域福祉センター,日高郡由良町吹井80-88,1,和歌山県,日高郡由良町,吹井80-88,0738-65-3500,0738-65-3502,8:30,17:15,地上２階,土、日、祝日,◎一般駐車場　有り：３０台,官公庁舎等,33.9702484,135.1088911,,
30639,30639,日高川町役場,日高郡日高川町土生160,1,和歌山県,日高郡日高川町,土生160,0738-22-1700,0738-22-8779,8:30,17:15,地上３階,土、日、祝日,◎一般駐車場　有り：５０台<br>◎障害者用駐車場　有り：１台,官公庁舎等,33.91178484,135.1859268,,
30640,30640,日高川町役場中津支所,日高郡日高川町高津尾29,1,和歌山県,日高郡日高川町,高津尾29,0738-54-0321,0738-54-0123,8:30,17:15,地上３階,土、日、祝日,◎一般駐車場　有り：８０台<br>◎障害者用駐車場　有り：１台,官公庁舎等,33.96144826,135.2875446,,
30641,30641,日高川町健康管理センター,日高郡日高川町高津尾,1,和歌山県,日高郡日高川町,高津尾,0738-54-0321(中津村役場),,8:30,17:15,地上１階,土、日、祝日,◎一般駐車場　有り：２０台,官公庁舎等,33.96041946,135.2890006,,
30642,30642,日高川町役場美山支所,日高郡日高川町川原河202,1,和歌山県,日高郡日高川町,川原河202,0738-56-0321,0738-56-0443,8:30,17:15,地上３階,土、日,◎一般駐車場　有り：３０台<br>◎障害者用駐車場　有り：１台,官公庁舎等,33.9821675,135.3669927,,
30643,30643,椿山ダム管理事務所,日高郡日高川町初湯川1874,1,和歌山県,日高郡日高川町,初湯川1874,0738-57-0400,0738-57-0454,9:00,17:00,地上２階,土・日・祝祭日,◎一般駐車場　有り：６台,官公庁舎等,33.9587225,135.3926341,,
30644,30644,龍神行政局,田辺市龍神村西376,1,和歌山県,田辺市,龍神村西376,0739-78-0111,0739-78-0116,8:30,17:15,地上３階、地下１階,土、日、祝日、年末年始,◎一般駐車場　有り：５０台<br>◎障害者用駐車場　有り：２台,官公庁舎等,33.89376124,135.4884847,,
30645,30645,印南町役場,日高郡印南町印南2252-1,1,和歌山県,日高郡印南町,印南2252-1,0738-42-0120,0738-42-0662,8:30,17:15,地上３階,土、日、祝日,◎一般駐車場　有り：１００台<br>◎障害者用駐車場　有り：２台,官公庁舎等,33.81817494,135.2179688,,
30647,30647,印南町社会福祉センター,日高郡印南町印南2009-1,1,和歌山県,日高郡印南町,印南2009-1,0738-42-1433,0738-42-1433,8:30,17:15,地上２階,土、日、祝日,◎一般駐車場　有り：４０台<br>◎障害者用駐車場　有り：２台,官公庁舎等,33.81810024,135.2178702,,
30648,30648,切目社会教育センター,日高郡印南町西ノ地1285,1,和歌山県,日高郡印南町,西ノ地1285,0738-43-0773,0738-43-1350,8:30,17:15,地上２階,土、日、祝日,◎一般駐車場　有り：５０台,官公庁舎等,33.80115811,135.240369,,
30649,30649,みなべ町役場第２庁舎,日高郡みなべ町谷口299-1,1,和歌山県,日高郡みなべ町,谷口299-1,0739-74-2400,0739-74-2367,8:30,17:15,地上２階,土、日、祝日、年末年始,◎一般駐車場　有り：４台<br>◎障害者用駐車場　有り：１台,官公庁舎等,33.79147993,135.3306923,,
30650,30650,みなべ町役場,日高郡みなべ町字芝742,1,和歌山県,日高郡みなべ町,字芝742,0739-72-2015,0739-72-3893,8:30,17:15,地上３階,土、日、祝日,◎一般駐車場　有り：７５台<br>◎障害者用駐車場　有り：２台,官公庁舎等,33.77241303,135.3212507,,
30651,30651,海南市海南消防署,海南市日方１２９４-１３,1,和歌山県,海南市,日方１２９４-１３,073-482-0119,073-482-0088,0:00,24:00,地上３階,なし,◎一般駐車場　有り：４台<br>◎障害者用駐車場　有り：２台,官公庁舎等,34.15653207,135.2050867,,
30652,30652,海南市海南保健福祉センター,海南市日方１５１９の１０,1,和歌山県,海南市,日方１５１９の１０,未定,未定,8:30,21:30,地上４階,未定,◎障害者用駐車場　有り：２台,官公庁舎等,34.15519914,135.210864,,
30653,30653,和歌山県海南警察署藤白駐在所,海南市藤白169番地,1,和歌山県,海南市,藤白169番地,073-482-0110,なし,0:00,24:00,地上１階,なし,◎一般駐車場　有り<br>◎障害者用駐車場　有り,官公庁舎等,34.14670037,135.2104196,,
30654,30654,和歌山県海南警察署,海南市日方1294-24,1,和歌山県,海南市,日方1294-24,073-482-0110,,0:00,24:00,地上３階,なし,◎一般駐車場　有り：１５台<br>◎障害者用駐車場　有り：１台,官公庁舎等,34.156296,135.2048596,,
30655,30655,橋本市役所,橋本市東家1-1-1,1,和歌山県,橋本市,東家1-1-1,0736-33-1111,0736-33-1665,8:30,17:15,地上３階,土、日、祝日,◎一般駐車場　有り：６５台<br>◎障害者用駐車場　有り：２台,官公庁舎等,34.31465798,135.6053264,,
30660,30660,社会福祉センター（はあと館）,日高郡みなべ町芝447-2,1,和歌山県,日高郡みなべ町,芝447-2,0739-72-5252,0739-72-5252,8:30,17:15,地上３階,土、日、祝日、年末年始,◎一般駐車場　有り：１４台,官公庁舎等,33.76610818,135.3236118,,
30661,30661,青少年センター（住民会館）,日高郡みなべ町芝265-1,1,和歌山県,日高郡みなべ町,芝265-1,0739-72-4141,0739-72-4187,8:30,17:15,地上２階,土、日、祝日、年末年始,◎一般駐車場　有り：６台,官公庁舎等,33.76863568,135.3258337,,
30663,30663,橋本市社会福祉センター,橋本市御幸辻787-2,1,和歌山県,橋本市,御幸辻787-2,0736-33-2294,0736-33-2294,8:30,17:00,地上２階,土、日、祝日,◎一般駐車場　有り：６０台,官公庁舎等,34.34093255,135.5966878,,
30664,30664,橋本地方合同庁舎,橋本市東家５丁目2-2,1,和歌山県,橋本市,東家５丁目2-2,0736-32-0206,0736-32-2448,8:30,17:15,地上３階,土、日、祝日、12/29〜1/3,◎一般駐車場　有り：２３台<br>◎障害者用駐車場　有り：１台,官公庁舎等,34.31426922,135.6084372,,
30665,30665,伊都総合庁舎,橋本市市脇4-5-8,1,和歌山県,橋本市,市脇4-5-8,0736-34-1700,,9:00,17:45,地上３階,土、日、祝日、12/29〜1/3,◎一般駐車場　有り：１２０台<br>◎障害者用駐車場　有り：５台,官公庁舎等,34.31176932,135.6009102,,
30666,30666,橋本警察署,橋本市市脇4-2-2,1,和歌山県,橋本市,市脇4-2-2,0736-33-0110,,0:00,24:00,地上３階,なし,◎一般駐車場　有り：４９台<br>◎障害者用駐車場　有り：１台,官公庁舎等,34.3127692,135.6012712,,
30667,30667,橋本簡易裁判所,橋本市東家5-2-4,1,和歌山県,橋本市,東家5-2-4,0736-32-0314,0736-32-0341,8:30,17:00,地上２階,土、日、祝日、12/29〜1/3,◎一般駐車場　有り：１４台<br>◎障害者用駐車場　有り：１台,官公庁舎等,34.31435263,135.6088816,,
30668,30668,有田市役所,有田市箕島50,1,和歌山県,有田市,箕島50,0737-83-1111,0737-82-1725,8:30,17:15,地上５階,土、日、祝日,◎一般駐車場　有り：３１台<br>◎障害者用駐車場　有り：２台,官公庁舎等,34.0832341,135.1277069,,
30669,30669,有田市文化福祉センター,有田市箕島27,1,和歌山県,有田市,箕島27,0737-82-3221,0737-82-3311,8:30,22:00,地上５階,火、水曜,◎一般駐車場　有り：３６台<br>◎障害者用駐車場　有り：２台,官公庁舎等,34.0835673,135.1242907,,
30670,30670,北原会館,有田市初島町里1207,1,和歌山県,有田市,初島町里1207,0737-83-3022,0737-83-3022,8:30,17:00,地上２階,土、日、祝日,◎一般駐車場　有り：５台,官公庁舎等,34.10089826,135.120346,,
30671,30671,有田市立砂浜会館,有田市初島町浜1769-1,1,和歌山県,有田市,初島町浜1769-1,0737-83-1596,0737-83-1596,8:30,17:15,地上２階,土、日、祝日,◎一般駐車場　有り：１２台,官公庁舎等,34.10589747,135.1155686,,
30672,30672,有田市立港会館,有田市港町63-2,1,和歌山県,有田市,港町63-2,0737-82-3590,0737-82-3590,8:30,17:15,地上２階,土、日、祝日,,官公庁舎等,34.08903861,135.1127917,,
30673,30673,有田市立須谷会館,有田市宮原町須谷296-1,1,和歌山県,有田市,宮原町須谷296-1,0737-88-6801,0737-88-6801,8:30,17:30,地上２階,土、日、祝日,◎一般駐車場　有り：２台,官公庁舎等,34.07377497,135.1865832,,
30674,30674,有田警察署,有田市宮崎町２６５,1,和歌山県,有田市,宮崎町２６５,0737-83-0110,,0:00,24:00,地上３階,なし,◎一般駐車場　有り：２２台<br>◎障害者用駐車場　有り：１台,官公庁舎等,34.07879964,135.1141297,,
30675,30675,御坊市役所,御坊市薗350,1,和歌山県,御坊市,薗350,0738-22-4111,0738-24-2390,8:30,17:15,地上５階、地下１階,土、日、祝日,◎一般駐車場　有り：６０台<br>◎障害者用駐車場　有り：２台,官公庁舎等,33.89145286,135.1524577,,
30676,30676,御坊地域職業訓練センター,御坊市薗300-4,1,和歌山県,御坊市,薗300-4,0738-23-3011,0738-23-3011,8:30,17:30,地上４階,土、日、祝日,◎一般駐車場　有り：２１台,官公庁舎等,33.89186951,135.1523466,,
30677,30677,御坊市福祉センター,御坊市薗350,1,和歌山県,御坊市,薗350,0738-22-5490,0738-22-9991,8:30,17:15,地上４階,土、日、祝日,◎一般駐車場　有り：５台,官公庁舎等,33.89145286,135.1524577,,
30678,30678,御坊税務署,御坊市薗430,1,和歌山県,御坊市,薗430,0738-22-0695,,9:00,17:00,地上２階,土、日、祝日,◎一般駐車場　有り：１５台<br>◎障害者用駐車場　有り：１台,官公庁舎等,33.88972697,135.1523727,,
30679,30679,和歌山地方法務局御坊支局,御坊市薗369-6,1,和歌山県,御坊市,薗369-6,0738-22-0335,0738-22-0412,8:30,17:15,地上２階,土、日、祝日,◎一般駐車場　有り：１０台<br>◎障害者用駐車場　有り：１台,官公庁舎等,33.89147119,135.1535068,,
30680,30680,和歌山地方検察庁御坊支部,御坊市薗396-6,1,和歌山県,御坊市,薗396-6,0738-22-0524,0738-24-1765,8:30,17:30,地上２階,土、日、祝日,◎一般駐車場　有り：１０台<br>◎障害者用駐車場　有り：１台,官公庁舎等,33.89147119,135.1535068,,
30681,30681,御坊市外三ケ町国民健康保険組合,御坊市薗116-1,1,和歌山県,御坊市,薗116-1,0738-22-1115,0738-22-2217,8:30,17:15,地上４階,土、日、祝日,◎一般駐車場　有り：８台,官公庁舎等,33.89570242,135.1547908,,
30682,30682,和歌山地方裁判所御坊支部,御坊市湯川町財部515-2,1,和歌山県,御坊市,湯川町財部515-2,0738-22-0006,0738-24-3041,8:30,17:15,地上２階,土、日、祝日,◎一般駐車場　有り：１５台,官公庁舎等,33.9007018,135.1521243,,
30683,30683,薗会館,御坊市島358-1,1,和歌山県,御坊市,島358-1,0738-22-0436,0738-24-2828,9:00,16:00,地上２階,土、日、祝日,◎一般駐車場　有り：１０台,官公庁舎等,33.88823128,135.1609569,,
30684,30684,御坊警察署,御坊市湯川町財部237-1,1,和歌山県,御坊市,湯川町財部237-1,0738-23-0110,,0:00,24:00,地上２階,なし,◎一般駐車場　有り：２２台<br>◎障害者用駐車場　有り：１台,官公庁舎等,33.90147942,135.1487635,,
30685,30685,御坊公共職業安定所,御坊市湯川町財部943,1,和歌山県,御坊市,湯川町財部943,0738-22-3527,0738-24-0702,8:30,17:15,地上２階,土、日、祝日,◎一般駐車場　有り：２２台<br>◎障害者用駐車場　有り：１台,官公庁舎等,33.89984113,135.1638455,,
30686,30686,御坊労働基準監督署,御坊市湯川町財部1132,1,和歌山県,御坊市,湯川町財部1132,0738-22-3571,0738-22-3707,8:30,17:15,地上２階,土、日、祝日,◎一般駐車場　有り：９台,官公庁舎等,33.90020215,135.1626234,,
30687,30687,和歌山県日高総合庁舎,御坊市湯川町財部651,1,和歌山県,御坊市,湯川町財部651,0738-22-3111,0738-22-8751,9:00,17:45,地上３階,土、日、祝日,◎一般駐車場　有り：５０台<br>◎障害者用駐車場　有り：２台,官公庁舎等,33.89814657,135.1519577,,
30689,30689,日高振興局健康福祉部,御坊市湯川町財部859-2,1,和歌山県,御坊市,湯川町財部859-2,0738-22-3481,0738-22-8751,9:00,17:45,地上２階,土、日、祝日,◎一般駐車場　有り：２５台,官公庁舎等,33.90214635,135.1597903,,
30690,30690,御坊市斎場,御坊市島１０７８-２,1,和歌山県,御坊市,島１０７８-２,0738-23-4101,,10:00,16:00,地上２階,42005,◎一般駐車場　有り：２３台,官公庁舎等,33.89086996,135.1645677,,
30691,30691,田辺市役所,田辺市新屋敷町1,1,和歌山県,田辺市,新屋敷町1,0739-22-5300（代表）,0739-22-5310（総務課）,8:30,17:15,地上５階,土、日、祝日、12/29〜1/3,◎一般駐車場　有り：６７台<br>◎障害者用駐車場　有り：２台,官公庁舎等,33.72798512,135.377728,,
30694,30694,田辺市社会福祉センター（田辺市役所）,田辺市中屋敷町24-49,1,和歌山県,田辺市,中屋敷町24-49,0739-22-5300（田辺市役所代表）,0739-22-5310（田辺市役所総務課）,8:30,17:15,地上３階,土、日、祝日、12/29〜1/3,,官公庁舎等,33.72799453,135.378117,,
30695,30695,西牟婁総合庁舎,田辺市朝日ヶ丘23-1,1,和歌山県,田辺市,朝日ヶ丘23-1,0739-22-1200,0739-26-7913総務課,9:00,17:45,地上４階,土、日、祝日,◎一般駐車場　有り：１５０台<br>◎障害者用駐車場　有り：３台,官公庁舎等,33.7351819,135.3933026,,
30696,30696,田辺年金事務所,田辺市朝日ヶ丘24-8,1,和歌山県,田辺市,朝日ヶ丘24-8,0739-24-0323,0739-24-6638,8:30,17:15,地上２階,土、日、祝日,◎一般駐車場　有り：７台,官公庁舎等,33.73543686,135.3923321,,
30697,30697,田辺公共職業安定所,田辺市朝日ヶ丘24-6,1,和歌山県,田辺市,朝日ヶ丘24-6,0739-22-2626,0739-22-1028,8:30,17:00,地上２階,土、日、祝日,◎一般駐車場　有り：１２台,官公庁舎等,33.73563103,135.3925904,,
30698,30698,田辺警察署,田辺市上の山１丁目２番１号,1,和歌山県,田辺市,上の山１丁目２番１号,0739-23-0110,,0:00,24:00,地上３階,なし,◎一般駐車場　有り：３０台<br>◎障害者用駐車場　有り：１台,官公庁舎等,33.73636308,135.3685136,,
30699,30699,田辺運転免許センター,田辺市上の山１丁目２番５号,1,和歌山県,田辺市,上の山１丁目２番５号,0739-22-6700,,8:30,17:00,地上２階,土、祝日、第三日曜以外の日曜、振替休日及び年末年始の休日,◎一般駐車場　有り：２３台（５０台隣地駐車場）<br>◎障害者用駐車場　有り：１台,官公庁舎等,33.73680683,135.3684686,,
30700,30700,和歌山地方裁判所田辺支部,田辺市新屋敷町5,1,和歌山県,田辺市,新屋敷町5,0739-22-2801,0739-26-6459,8:30,17:15,地上４階,土、日、祝日,◎一般駐車場　有り：３１台,官公庁舎等,33.72703305,135.378417,,
30701,30701,新宮市役所,新宮市春日1-1,1,和歌山県,新宮市,春日1-1,0735-23-3333,0735-21-5422,8:30,17:15,地上４階,土、日、祝日、年末年始,◎一般駐車場　有り：４０台<br>◎障害者用駐車場　有り：１台,官公庁舎等,33.72413774,135.99266,,
30702,30702,新宮市役所三輪崎支所,新宮市三輪崎3-4-1,1,和歌山県,新宮市,三輪崎3-4-1,0735-31-7008,0735-31-5797,8:30,17:15,地上１階,土、日、祝祭日,◎一般駐車場　有り：３台,官公庁舎等,33.6850886,135.9821915,,
30703,30703,新宮公共職業安定所,新宮市神倉4-2-4,1,和歌山県,新宮市,神倉4-2-4,0735-22-6285,0735-21-5661,8:30,17:00,地上２階,土、日、祝日、年末年始,◎一般駐車場　有り：３５台<br>◎障害者用駐車場　有り：１台,官公庁舎等,33.7206421,135.9882521,,
30704,30704,和歌山県東牟婁総合庁舎,新宮市緑ヶ丘2-4-8,1,和歌山県,新宮市,緑ヶ丘2-4-8,0735-22-8551,0735-21-9639,9:00,17:45,地上３階、地下１階,土、日、祝日,◎一般駐車場　有り：１００台<br>◎障害者用駐車場　有り：２台,官公庁舎等,33.71963411,135.9890635,,
30705,30705,新宮警察署,新宮市緑ヶ丘3-2-57,1,和歌山県,新宮市,緑ヶ丘3-2-57,0735-21-0110,,0:00,24:00,地上２階,なし,◎一般駐車場　有り：３０台,官公庁舎等,33.71863531,135.9897195,,
30706,30706,新宮労働基準監督署,新宮市清水元1-2-9,1,和歌山県,新宮市,清水元1-2-9,0735-22-5295,0735-22-6766,9:00,17:00,地上２階,土、日,◎一般駐車場　有り：４台,官公庁舎等,33.71951373,135.997034,,
30707,30707,新宮税務署,新宮市伊佐田町2-1-20,1,和歌山県,新宮市,伊佐田町2-1-20,0735-22-5261,,9:00,17:00,地上２階,土、日、祝日,◎一般駐車場　有り：１０台,官公庁舎等,33.72721566,135.9938768,,
30708,30708,新宮簡易裁判所,新宮市千穂3-7-13,1,和歌山県,新宮市,千穂3-7-13,0735-22-2007,0735-22-5971,8:00,17:00,地上２階,土、日、祝日,◎一般駐車場　有り：１５台,官公庁舎等,33.72524662,135.9869292,,
30709,30709,新宮警察署三輪崎交番,新宮市三輪崎3-10-1,1,和歌山県,新宮市,三輪崎3-10-1,0735-21-0110,,0:00,24:00,地上２階,なし,◎一般駐車場　有り：２台,官公庁舎等,33.68330378,135.9787811,,
30710,30710,海南市下津行政局,海南市下津町丸田217-1,1,和歌山県,海南市,下津町丸田217-1,073-492-1212,073-492-2419,8:30,17:15,地上３階,土、日、祝日、年末年始,◎一般駐車場　有り<br>◎障害者用駐車場　有り,官公庁舎等,34.12531251,135.1560914,,
30711,30711,海南市下津保健福祉センター,海南市下津町上14-6,1,和歌山県,海南市,下津町上14-6,073-493-2722,073-493-2723,9:30,16:00,地上２階,土、日,◎一般駐車場　有り：４１台<br>◎障害者用駐車場　有り：１台,官公庁舎等,34.11634141,135.154064,,
30712,30712,海南市下津斎場,海南市下津町梅田670-31,1,和歌山県,海南市,下津町梅田670-31,073-492-4152,,10:00,17:00,地上２階,42005,◎一般駐車場　有り：１５台<br>◎障害者用駐車場　有り：１台,官公庁舎等,34.13658968,135.1861442,,
30713,30713,紀美野町役場,海草郡紀美野町動木287,1,和歌山県,海草郡紀美野町,動木287,073-489-2430,073-489-2510,8:30,17:15,地上３階,土、日、祝日、年末年始,◎一般駐車場　有り：８０台<br>◎障害者用駐車場　有り：１台,官公庁舎等,34.16719933,135.3074947,,
30714,30714,美里町役場,海草郡紀美野町神野市場226-1,1,和歌山県,海草郡紀美野町,神野市場226-1,073-495-2021,073-495-3334,8:30,17:15,地上３階,土、日、祝日,◎一般駐車場　有り：４２台<br>◎障害者用駐車場　有り：２台,官公庁舎等,34.14967915,135.3553352,,
30715,30715,白浜町役場,西牟婁郡白浜町1600,1,和歌山県,西牟婁郡白浜町,1600,0739-43-5555,0739-43-5353,8:30,17:00,地上２階,土、日、祝日,◎一般駐車場　有り：２２台<br>◎障害者用駐車場　有り：２台,官公庁舎等,33.67814719,135.348137,,
30716,30716,白浜町保健センター,西牟婁郡白浜町1095-5,1,和歌山県,西牟婁郡白浜町,1095-5,0739-43-0178,0739-42-3246,8:30,17:00,地上３階,土、日、祝日,◎一般駐車場　有り：１２台,官公庁舎等,33.6858407,135.3490813,,
30717,30717,白浜町福祉センター,西牟婁郡白浜町1600,1,和歌山県,西牟婁郡白浜町,1600,0739-43-5566,0739-43-5566,8:30,17:00,地上２階,土、日、祝日,◎一般駐車場　有り：５台,官公庁舎等,33.67814719,135.348137,,
30718,30718,白浜警察署,西牟婁郡白浜町Jun-71,1,和歌山県,西牟婁郡白浜町,26085,0739-43-0110,,0:00,24:00,地上３階,なし,◎一般駐車場　有り：７台,官公庁舎等,33.6794248,135.3631077,,
30719,30719,富田事務所（町役場支所）,西牟婁郡白浜町栄723-3,1,和歌山県,西牟婁郡白浜町,栄723-3,0739-45-0009,,8:30,17:00,地上２階,土、日、祝日,◎一般駐車場　有り：３０〜４０台,官公庁舎等,33.6534844,135.3969383,,
30720,30720,中辺路行政局,田辺市中辺路町栗栖川396-1,1,和歌山県,田辺市,中辺路町栗栖川396-1,0739-64-0500,0739-64-0966,8:15,17:15,地上３階,土、日、祝日,◎一般駐車場　有り：３０台<br>◎障害者用駐車場　有り：１台,官公庁舎等,33.79266234,135.5186209,,
30721,30721,中辺路保健福祉センター,田辺市中辺路町栗栖川329-1,1,和歌山県,田辺市,中辺路町栗栖川329-1,0739-64-1880,0739-64-1885,8:30,17:15,地上２階,土、日、祝日,◎一般駐車場　有り：２２台,官公庁舎等,33.7911069,135.5164266,,
30722,30722,大塔行政局,田辺市鮎川2567,1,和歌山県,田辺市,鮎川2567,0739-48-0301,0739-49-0359,8:30,17:15,地上４階,土、日、祝日,◎一般駐車場　有り：３０台,官公庁舎等,33.72992008,135.489707,,
30723,30723,ふくしかいかん,田辺市鮎川583-9,1,和歌山県,田辺市,鮎川583-9,0739-49-0626,0739-49-0920,8:30,17:15,地上２階,土、日、祝日,◎一般駐車場　有り：８台,官公庁舎等,33.72908672,135.4834298,,
30724,30724,とみさとふくしセンター,田辺市下川下989,1,和歌山県,田辺市,下川下989,0739-63-0707,0739-63-0700,8:30,17:15,地上１階,土、日、祝日,◎一般駐車場　有り：１０台,官公庁舎等,33.74264177,135.585281,,
30725,30725,みかわふくしセンター,田辺市向山354-1,1,和歌山県,田辺市,向山354-1,0739-62-0606,0739-62-0608,10:00,15:00,地上１階,土、日、祝日,◎一般駐車場　有り：８台<br>◎障害者用駐車場　有り：２台,官公庁舎等,33.70400762,135.5727548,,
30726,30726,中辺路大塔消防署,田辺市鮎川851-1,1,和歌山県,田辺市,鮎川851-1,0739-48-0119,0739-48-0090,0:00,24:00,地上２階,なし,◎一般駐車場　有り：３台<br>◎障害者用駐車場　有り：１台,官公庁舎等,33.73669703,135.4991228,,
30727,30727,上富田町役場,西牟婁郡上富田町朝来763,1,和歌山県,西牟婁郡上富田町,朝来763,0739-47-0550,0739-47-4005,8:30,17:00,地上２階,土、日、祝日、年末年始,◎一般駐車場　有り,官公庁舎等,33.69697944,135.4288521,,
30728,30728,上富田町大谷総合センター,西牟婁郡上富田町朝来3992-3,1,和歌山県,西牟婁郡上富田町,朝来3992-3,0739-47-0366,0739-47-0366,8:30,17:00,地上２階,土、日、祝日、年末年始,◎一般駐車場　有り：１５台,官公庁舎等,33.70586704,135.4211861,,
30729,30729,上富田町岩田出張所,西牟婁郡上富田町岩田1776,1,和歌山県,西牟婁郡上富田町,岩田1776,0739-47-2124,,8:30,17:00,地上２階,土、日、祝日、年末年始,◎一般駐車場　有り：５０台,官公庁舎等,33.70811687,135.4440172,,
30730,30730,南紀福祉センター保護更正部,西牟婁郡上富田町岩田2456-1,1,和歌山県,西牟婁郡上富田町,岩田2456-1,0739-47-4952(管理棟へ連絡),0739-47-3324,0:00,24:00,地上１階,年中無休,◎一般駐車場　有り：１００台<br>◎障害者用駐車場　有り：１０台,官公庁舎等,33.71019987,135.4440172,,
30731,30731,南紀福祉センター療護部,西牟婁郡上富田町岩田2456-1,1,和歌山県,西牟婁郡上富田町,岩田2456-1,0739-47-4952(管理棟へ連絡),0739-47-3324,0:00,24:00,地上１階,年中無休,◎一般駐車場　有り：１００台<br>◎障害者用駐車場　有り：１０台,官公庁舎等,33.71019987,135.4440172,,
30732,30732,南紀福祉センター,西牟婁郡上富田町岩田2456,1,和歌山県,西牟婁郡上富田町,岩田2456,0739-47-2175,0739-47-2176,8:45,17:30,地上１階,土、日、祝日,◎一般駐車場　有り：２０台<br>◎障害者用駐車場　有り：５台,官公庁舎等,33.71022767,135.4443227,,
30733,30733,日置川町役場,西牟婁郡白浜町日置980-1,1,和歌山県,西牟婁郡白浜町,日置980-1,0739-52-2300,0739-52-2186,9:00,17:30,地上２階,土、日,◎一般駐車場　有り：１０台,官公庁舎等,33.56740816,135.4391375,,
30735,30735,すさみ町役場,西牟婁郡すさみ町周参見4089,1,和歌山県,西牟婁郡すさみ町,周参見4089,0739-55-2004,0739-55-4008,8:30,17:15,地上２階,土、日、祝日,◎一般駐車場　有り：１５台,官公庁舎等,33.54972044,135.4967061,,
30737,30737,串本町役場,東牟婁郡串本町串本1800,1,和歌山県,東牟婁郡串本町,串本1800,07356-2-0555,07356-2-4977,8:30,17：15,地上４階,土、日、祝祭日,◎一般駐車場　有り：２７台,官公庁舎等,33.47261974,135.7814027,,
30738,30738,和歌山県東牟婁振興局串本建設部,東牟婁郡串本町串本2491,1,和歌山県,東牟婁郡串本町,串本2491,07356-2-0755,07356-2-5390,9:00,17：30,地上２階,土、日、祝日,◎一般駐車場　有り：１５台,官公庁舎等,33.47381412,135.7836524,,
30739,30739,串本簡易裁判所,東牟婁郡串本町串本1531,1,和歌山県,東牟婁郡串本町,串本1531,07356-2-0212,,8:30,17:15,地上２階,土、日、祝日,◎一般駐車場　有り：７台,官公庁舎等,33.46359293,135.7804306,,
30740,30740,串本警察署,東牟婁郡串本町串本2114,1,和歌山県,東牟婁郡串本町,串本2114,0735-62-0110,,0:00,24:00,地上２階,なし,◎一般駐車場　有り：１０台,官公庁舎等,33.47307079,135.7815238,,
30741,30741,紀の川市役所,紀の川市西大井338,1,和歌山県,紀の川市,西大井338,0736-77-2511,0736-77-4910,8:45,17:30,地上４階,土、日、祝日,◎一般駐車場　有り：１２０台<br>◎障害者用駐車場　有り：３台,官公庁舎等,34.26921575,135.3628762,,
30742,30742,紀の川市役所北別館,紀の川市西大井348-1,1,和歌山県,紀の川市,西大井348-1,0736-77-3140,0736-77-2799,8:45,17:30,地上３階,土、日、祝日,◎一般駐車場　有り：３０台<br>◎障害者用駐車場　有り：２台,官公庁舎等,34.26985458,135.3628206,,
30743,30743,古和田会館,紀の川市古和田626,1,和歌山県,紀の川市,古和田626,0736-77-5300,0736-77-5300,8:45,17:30,地上２階,土、日、祝日,◎一般駐車場　有り：２０台,官公庁舎等,34.27304853,135.3547657,,
30744,30744,紀の川市役所　粉河支所,紀の川市粉河412,1,和歌山県,紀の川市,粉河412,0736-73-3311,0736-73-6162,8:45,17:30,地上３階,土、日、祝日,◎一般駐車場　有り：２５０台<br>◎障害者用駐車場　有り：１台,官公庁舎等,34.26999358,135.407845,,
30745,30745,粉河保健センター,紀の川市粉河438-2,1,和歌山県,紀の川市,粉河438-2,0736-73-3311,,8:45,17:30,地上２階,土、日、祝日,◎一般駐車場　有り：７台,官公庁舎等,34.27050414,135.4081004,,
30746,30746,粉河税務署,紀の川市粉河807,1,和歌山県,紀の川市,粉河807,0736-73-3301,,8:30,17:00,地上３階,土、日、祝日、年末年始,◎一般駐車場　有り：２５台<br>◎障害者用駐車場　有り：１台,官公庁舎等,34.27010468,135.4047342,,
30747,30747,紀の川市役所　那賀支所,紀の川市名手市場146-4,1,和歌山県,紀の川市,名手市場146-4,0736-75-3111,0736-75-3117,8:45,17:30,地上３階,土、日、祝日,◎一般駐車場　有り：３０台<br>◎障害者用駐車場　有り：２台,官公庁舎等,34.2723273,135.4365643,,
30748,30748,紀の川市役所　桃山支所,紀の川市桃山町元381,1,和歌山県,紀の川市,桃山町元381,0736-66-1100,0736-66-1681,8:45,17:30,地上３階,土、日、祝日,◎一般駐車場　有り：５０台<br>◎障害者用駐車場　有り：２台,官公庁舎等,34.23938552,135.3512108,,
30749,30749,紀の川市役所　貴志川支所,紀の川市貴志川町神戸327-1,1,和歌山県,紀の川市,貴志川町神戸327-1,0736-64-2525,0736-64-6599,8:45,17:30,地上３階,土、日、祝日,◎一般駐車場　有り：１５０台<br>◎障害者用駐車場　有り：４台,官公庁舎等,34.21819293,135.3139933,,
30750,30750,貴志川保健福祉センター,紀の川市貴志川町神戸331,1,和歌山県,紀の川市,貴志川町神戸331,0736-65-2525,0736-65-2570,8:45,17:30,地上３階,土、日、祝日,◎一般駐車場　有り：１０台<br>◎障害者用駐車場　有り：２台,官公庁舎等,34.21772079,135.3139655,,
30751,30751,那賀総合庁舎,岩出市高塚209,1,和歌山県,岩出市,高塚209,0736-63-0100,0736-61-0007,9:00,17:45,地上３階,土、日、祝日,◎一般駐車場　有り：８０台<br>◎障害者用駐車場　有り：３台,官公庁舎等,34.25996603,135.3240744,,
30752,30752,岩出市役所,岩出市西野209,1,和歌山県,岩出市,西野209,0736-62-2141,0736-63-0075,8:45,17:30,地上３階,土、日、祝日、年末年始,◎一般駐車場　有り：２１６台<br>◎障害者用駐車場　有り：３台,官公庁舎等,34.25591079,135.3105761,,
30753,30753,地方法務局岩出出張所,岩出市西野206-7,1,和歌山県,岩出市,西野206-7,0736-62-2318,0736-62-2318,8:30,17:00,地上１階,土、日、祝日,◎一般駐車場　有り：２２台<br>◎障害者用駐車場　有り：１台,官公庁舎等,34.25682821,135.3114401,,
30759,30759,岩出警察署,岩出市高塚１９８-１,1,和歌山県,岩出市,高塚１９８-１,0736-63-0110,,0:00,24:00,地上３階,なし,◎一般駐車場　有り：４０台<br>◎障害者用駐車場　有り：２台,官公庁舎等,34.26063256,135.3239355,,
30760,30760,岩出警察署根来交番,岩出市桜台493,1,和歌山県,岩出市,桜台493,なし,なし,0:00,24:00,地上１階,なし,◎一般駐車場　有り：５台,官公庁舎等,34.27801987,135.3135753,,
30761,30761,那智勝浦町役場,東牟婁郡那智勝浦町築地７丁目1-1,1,和歌山県,東牟婁郡那智勝浦町,築地７丁目1-1,07355-2-0555,07355-2-6543,8:30,17:15,地上３階,土、日、祝日,◎一般駐車場　有り：２００台<br>◎障害者用駐車場　有り：２台,官公庁舎等,33.62599354,135.9409996,,
30762,30762,那智勝浦町民センター,東牟婁郡那智勝浦町天満1497-3,1,和歌山県,東牟婁郡那智勝浦町,天満1497-3,0735-52-1170,07355-2-1710,8:30,17:15,地上２階,土、日、祝日,◎一般駐車場　有り：２４台<br>◎障害者用駐車場　有り：１台,官公庁舎等,33.6326038,135.9353334,,
30763,30763,那智勝浦町福祉健康センター,東牟婁郡那智勝浦町天満1418-2,1,和歌山県,東牟婁郡那智勝浦町,天満1418-2,07355-2-7145,07355-2-3700,8:30,21:00,地上２階,月曜,◎一般駐車場　有り：２０台<br>◎障害者用駐車場　有り：２台,官公庁舎等,33.63179838,135.934889,,
30764,30764,老人憩の家,東牟婁郡那智勝浦町天満482-1,1,和歌山県,東牟婁郡那智勝浦町,天満482-1,07355-2-0672,,8:00,15:00,地上１階,日、祝日,,官公庁舎等,33.6347425,135.9367222,,
30765,30765,老人憩の家正和荘,東牟婁郡那智勝浦町大字下里2811,1,和歌山県,東牟婁郡那智勝浦町,大字下里2811,07355-8-1281,,8:30,17:15,地上１階,年中無休,◎一般駐車場　有り：１０台,官公庁舎等,33.57593177,135.9214696,,
30766,30766,新宮警察署井関警察官駐在所,東牟婁郡那智勝浦町大字井関918-2,1,和歌山県,東牟婁郡那智勝浦町,大字井関918-2,0735-52-3320,,0:00,24:00,地上２階,なし,◎一般駐車場　有り：３台,官公庁舎等,33.65541178,135.9150067,,
30767,30767,太地町役場,東牟婁郡太地町太地3767-1,1,和歌山県,東牟婁郡太地町,太地3767-1,07355-9-2335,07355-9-3375,0:00,24:00,地上２階,土、日、祝日,◎一般駐車場　有り：２６台<br>◎障害者用駐車場　有り：１台,官公庁舎等,33.59402534,135.9439725,,
30769,30769,串本町役場古座分庁舎,東牟婁郡串本町西向359,1,和歌山県,東牟婁郡串本町,西向359,07357-2-0081,07357-2-3037,8:30,17:15,地上３階,土、日、祝祭日,◎一般駐車場　有り：６１台<br>◎障害者用駐車場　有り：２台,官公庁舎等,33.5181156,135.8230402,,
30770,30770,古座福祉センター,東牟婁郡串本町上野山291-4,1,和歌山県,東牟婁郡串本町,上野山291-4,0735-72-3539,0735-72-2777,8:30,17:15,地上１階,日曜日,◎一般駐車場　有り：１０台<br>◎障害者用駐車場　有り：２台,官公庁舎等,33.51853235,135.8335674,,
30771,30771,古座川町役場,東牟婁郡古座川町高池673-2,1,和歌山県,東牟婁郡古座川町,高池673-2,07357-2-0180,07357-2-1858,8:30,17:15,地上３階,土、日、祝日,◎一般駐車場　有り：３０台<br>◎障害者用駐車場　有り：２台,官公庁舎等,33.53200286,135.8149577,,
30772,30772,古座川町町民会館,東牟婁郡古座川町高池777,1,和歌山県,東牟婁郡古座川町,高池777,教育委員会0735-72-3344<br>公民館0735-72-2752,0735-72-2018,8:30,15:15,地上２階,土、日、祝日,◎一般駐車場　有り：４１台,官公庁舎等,33.53453041,135.8163187,,
30773,30773,新宮市熊野川行政局,新宮市熊野川町日足350,1,和歌山県,新宮市,熊野川町日足350,0735-44-0301,0735-44-0317,8:30,17:15,地上４階,土、日、祝日,◎一般駐車場　有り：７台<br>◎障害者用駐車場　有り：１台,官公庁舎等,33.80580503,135.8725301,,
30774,30774,新宮市立熊野川総合開発センター,新宮市熊野川町日足350,1,和歌山県,新宮市,熊野川町日足350,0735-44-0301,0735-44-0317,8:30,17:15,地上２階,土、日、祝日,,官公庁舎等,33.80580503,135.8725301,,
30775,30775,新宮市立熊野川町保健センター,新宮市熊野川町日足655-1,1,和歌山県,新宮市,熊野川町日足655-1,0735-44-0395,0735-44-0408,8:30,17:15,地上１階,土、日、祝祭日,◎一般駐車場　有り：２０台,官公庁舎等,33.7985003,135.8715581,,
30776,30776,本宮行政局,田辺市本宮町本宮219,1,和歌山県,田辺市,本宮町本宮219,07354-2-0070,07354-2-0239,8:30,17:15,地上３階,土、日、祝日,◎一般駐車場　有り：６０台,官公庁舎等,33.83824421,135.7730113,,
30777,30777,本宮山村開発センター,田辺市本宮町本宮100,1,和歌山県,田辺市,本宮町本宮100,0735-42-0299,,8:30,21:00,地上２階,第1、第3日曜、12/29〜1/2,◎一般駐車場　有り：６０台,官公庁舎等,33.83821644,135.7750667,,
30778,30778,北山村役場,東牟婁郡北山村大沼42,1,和歌山県,東牟婁郡北山村,大沼42,0735-49-2331,0735-49-2207,8:30,17:30,地上２階,土、日,,官公庁舎等,33.93192907,135.9691596,,
30779,30779,和歌山県紀南児童相談所,田辺市元町1849番地の7,1,和歌山県,田辺市,元町1849番地の7,0739-22-1588,0739-22-1917,9:00,17:45,地上２階,土、日、祝日,◎一般駐車場　有り：９台,官公庁舎等,33.73691892,135.3606944,,
30780,30780,田辺警察署湯峯警察官駐在所,田辺市本宮町渡瀬861-2,1,和歌山県,田辺市,本宮町渡瀬861-2,0735-42-0172,,0:00,24:00,地上２階,なし,◎一般駐車場　有り：１０台,官公庁舎等,33.81919013,135.7596793,,
30781,30781,野上町総合福祉センター,海草郡紀美野町下佐々1408-4,1,和歌山県,海草郡紀美野町,下佐々1408-4,073-489-6655,,9:00,21:00,地上３階,祝・日・年末・年始,◎一般駐車場　有り：９２台<br>◎障害者用駐車場　有り：５台,官公庁舎等,34.15122271,135.3144644,,
30782,30782,有田市体育センター,有田市初島字浜1756-5,1,和歌山県,有田市,初島字浜1756-5,0737-83-1111,,9:00,22:00,地上１階,,◎一般駐車場　有り：５８台<br>◎障害者用駐車場　有り：２台,官公庁舎等,34.09220478,135.10682,,
30783,30783,海南税務署,海南市名高２５５−４,1,和歌山県,海南市,名高２５５−４,073-482-0901,,8:30,17:00,地上２階,土・日・祝日,◎一般駐車場　有り：１６台<br>◎障害者用駐車場　有り：１台,官公庁舎等,34.15254163,135.2180641,,
30784,30784,和歌山県庁南別館,和歌山市湊通丁北１丁目2-1,1,和歌山県,和歌山市,湊通丁北１丁目2-1,073-432-4111,,9:00,17:45,地上１０階,土・日・祝日,◎障害者用駐車場　有り：２台,官公庁舎等,34.22441128,135.1683663,,
30785,30785,和歌山県水産研究所,東牟婁郡串本町串本１５５７−２０,1,和歌山県,東牟婁郡串本町,串本１５５７−２０,0735-62-0940,,9:00,17:45,地上２階,土・日・祝日,◎一般駐車場　有り：１００台<br>◎障害者用駐車場　有り：２台,官公庁舎等,33.4615099,135.7849024,,
30440,30440,和歌山県立医大紀北分院,伊都郡かつらぎ町妙寺219,3,和歌山県,伊都郡かつらぎ町,妙寺219,0736-22-0066,0736-22-2579,24時間,0:00,24:00:00,地上２階,年中無休,,135.5303614,0,,34.3014641
30441,30441,伊藤病院,橋本市伏原1011,3,和歌山県,橋本市,伏原1011,0736-43-1133,0736-43-1114,9:00〜12:00、17:00〜20:00,9:00,20:00,地上３階,日、祝日、12/30〜1/3,,135.5740801,0,,34.30979707
30442,30442,辻本クリニック,橋本市大野235-1,3,和歌山県,橋本市,大野235-1,0736-42-2528,,9:00〜12:00、16:30〜19:00,9:00,19:00,地上３階,日、祝日,,135.5473044,0,,34.30576927
30443,30443,橋本市保健福祉センター,橋本市東家一丁目３９４他,3,和歌山県,橋本市,東家一丁目３９４他,0736-33-1111,0736-33-1665,9:00〜18:00,9:00,18:00,地上３階,土、日、祝日,,135.6039374,0,,34.31589059
30444,30444,河原整形外科,橋本市高野口町名古曽283-1,3,和歌山県,橋本市,高野口町名古曽283-1,0736-42-5757,,9:00〜12:00、16:00〜19:00,9:00,19:00,地上１階,日、祝日,,135.5658311,0,,34.30463089
30445,30445,横手クリニック,伊都郡九度山町九度山800,3,和歌山県,伊都郡九度山町,九度山800,0736-54-3111,0736-54-2111,9:00〜19:00,9:00,19:00,地上３階,日、祝日,◎エレベーターはストレッチャー搬入用。<br>◎手すり付便所、洋式大便所は男女共各階にあり。<br>◎車イス用電話ではないが、低い位置にあるので利用可。,135.5662751,0,,34.28327195
30446,30446,和歌山赤十字病院,和歌山市小松原通り４丁目20,3,和歌山県,和歌山市,小松原通り４丁目20,073-422-4171,073-422-1168,,0:00,24:00:00,地上１４階、地下１階,土、日、祝日、5/1、12/29〜1/3（急患は除く）,,135.1684496,0,,34.22018962
30447,30447,和歌山市保健所和歌山中保健センター,和歌山市吹上５丁目2-15,3,和歌山県,和歌山市,吹上５丁目2-15,073-433-2261,073-433-9980,8:30〜17:15,8:30,17:15,地上３階、地下１階,土、日、祝日,◎車イス用駐車場は正面入口より進入する地階駐車場にある。,135.1748102,0,,34.2208007
30448,30448,和歌山市夜間休日応急診療センター,和歌山市吹上５丁目２番１５号,3,和歌山県,和歌山市,吹上５丁目２番１５号,073-425-8181,,20:00〜6:00(土日祭・年末年始PM),20:00,6:00,地上１階、地下１階,なし,,135.1748102,0,,34.2208007
30449,30449,済生会和歌山病院,和歌山市12番丁,3,和歌山県,和歌山市,12番丁,073-424-5185,073-425-6485,8:45〜17:00,8:45,17:00,地上７階、地下１階,日、祝,,135.1731094,0,,34.23170798
30450,30450,須佐病院,和歌山市吹屋町４丁目30,3,和歌山県,和歌山市,吹屋町４丁目30,073-427-1111,073-427-1235,外来9:00〜12:00、16:00〜18:00<BR>見舞13:00〜19:00,9:00,19:00,地上３階,土午後、日、祝（外来）,,135.1896701,0,,34.22535614
30451,30451,医療法人了生会中村病院,和歌山市友田町２丁目32,3,和歌山県,和歌山市,友田町２丁目32,073-431-0351,073-431-8715,外来9:00〜12:00、16:00〜19:00<br>見舞15:00〜20:00,9:00,20:00,地上６階、地下１階,土曜午後、日、祝日,,135.1849481,0,,34.23304961
30452,30452,医療法人　郷の会　紀の郷病院,伊都郡九度山町九度山113-6,3,和歌山県,伊都郡九度山町,九度山113-6,0736-54-2288,0736-54-4816,9:00〜17:30,9:00,17:30,地上３階,土、日、祝日、12/29〜1/4,,135.5639275,0,,34.29404306
30453,30453,高野町立高野山病院,伊都郡高野町高野山631,3,和歌山県,伊都郡高野町,高野山631,0736-56-2911,0736-56-2912,24時間,0:00,24:00:00,地上２階,土、日、祝日,,135.5866157,0,,34.21655328
30454,30454,角谷整形外科病院,和歌山市吉田337,3,和歌山県,和歌山市,吉田337,073-433-1161,073-432-6054,外来8:30〜13:00、16:00〜19:00<br>見舞9:00〜21:00,8:30,21:00,地上７階,日、祝日（外来）,,135.1901699,0,,34.23688268
30455,30455,誠佑記念病院,和歌山市西田井391,3,和歌山県,和歌山市,西田井391,073-464-2655,,（診察時間）9:00〜12:30、17:00〜19:00,9:00,19:00,地上４階,日、祝日,,135.23663,0,,34.25427218
30456,30456,和歌山生協病院,和歌山市有本143-1,3,和歌山県,和歌山市,有本143-1,073-471-7711,,9:00〜20:30,9:00,20:30,地上５階,なし,,135.1968082,0,,34.24529881
30457,30457,向陽病院,和歌山市津秦40,3,和歌山県,和歌山市,津秦40,073-474-2000,073-474-1880,9:00〜12:00、14:00〜17:00、17:00〜19:00,9:00,19:00,地上５階,年中無休,,135.2043637,0,,34.22285678
30458,30458,医療法人甃友会在宅総合ケアセンター,和歌山市秋月宮ノ前535-2,3,和歌山県,和歌山市,秋月宮ノ前535-2,073-474-3511,073-474-3512,10:00〜16:00,10:00,16:00,地上３階,土、日,,135.2041136,0,,34.22582866
30459,30459,医療法人甃友会,和歌山市秋月宮ノ前535-2、3,3,和歌山県,和歌山市,秋月宮ノ前535-2、3,073-474-3511,073-474-3512,終日,0:00,24:00:00,地上３階,無休,,135.2041136,0,,34.22582866
30460,30460,愛晋会中江病院,和歌山市船所30-1,3,和歌山県,和歌山市,船所30-1,073-451-0222,073-455-9788,8:45〜12:00、16:30〜18:30,8:45,18:30,地上４階、地下１階,日曜、祝日,◎介護人等により対応ができる。,135.1806426,0,,34.2541587
30461,30461,良友会西和歌山病院,和歌山市土入176,3,和歌山県,和歌山市,土入176,073-452-1233,073-452-1040,8:45〜19:00<br>土曜は9:00〜12:00,8:45,19:00,地上４階,日曜、祝日、土曜午後,◎障害者用エレベーターとしては設置していないが、一般エレベーターで対応可。,135.1401451,0,,34.25301915
30462,30462,和歌山労災病院,和歌山市古屋435,3,和歌山県,和歌山市,古屋435,073-451-3181,073-452-7171,,8:15,20:00,地上５階、地下１階,土、日、祝日,◎車イス用トイレは、１階・２階・３階・４階・５階。<br>◎障害者等が来院してもボランティア等の介護人により対応できる。<br>◎おむつ替えができる場所は１階。,135.1176745,0,,34.25357441
30463,30463,綜愛苑,和歌山市西庄字岩ノ谷1107-45,3,和歌山県,和歌山市,西庄字岩ノ谷1107-45,073-454-2940,073-452-2940,24時間,0:00,24:00:00,地上３階,なし,,135.1172021,0,,34.27065582
30464,30464,琴の浦リハビリテーションセンター,和歌山市毛見1451,3,和歌山県,和歌山市,毛見1451,073-444-3141,073-444-9792,8:30〜17:15,8:30,17:15,地上３階,土、日、祝日,◎介護が必要な場合、職員が対応する。,135.1851163,0,,34.15792014
30466,30466,曙会和歌浦中央病院,和歌山市塩屋６丁目2-70,3,和歌山県,和歌山市,塩屋６丁目2-70,073-444-1600,073-441-3101,8:30〜12:00　16:30〜19:00,8:30,19:30,地上４階,日、祝日、土曜午後,◎介護が必要な場合、職員が対応する。,135.1779772,0,,34.19544277
30467,30467,半羽胃腸病院,和歌山市堀止南ノ庁4-11,3,和歌山県,和歌山市,堀止南ノ庁4-11,073-436-3933,073-436-5711,8:30〜19:00,8:30,19:00,地上４階,日、祝日,◎介護が必要な場合、職員が対応する。,135.1715329,0,,34.21219067
30468,30468,南保健センター,和歌山市和歌浦東１丁目１-３,3,和歌山県,和歌山市,和歌浦東１丁目１-３,073-447-0310,,8:30〜17:15,8:30,17:15,地上３階,土曜、日曜、祝日,,135.1701721,0,,34.19649804
30469,30469,紀三井寺苑,和歌山市紀三井寺560-2,3,和歌山県,和歌山市,紀三井寺560-2,073-448-2255,073-446-0120,終日,0:00,24:00:00,地上３階,無休,,135.1846714,0,,34.18130573
30470,30470,和歌山県立医科大学附属病院,和歌山市紀三井寺811-1,3,和歌山県,和歌山市,紀三井寺811-1,073-447-2300,,24時間,0:00,24:00:00,地上１３階、地下１階,土日祝日,◎入口に、案内していただくボランティアの方がおります。,135.1819215,0,,34.18802701
30471,30471,済生会有田病院,有田郡湯浅町吉川52-6,3,和歌山県,有田郡湯浅町,吉川52-6,0737-63-5561,0737-62-3420,9:00〜17:00,9:00,17:00,地上５階、地下１階,日、祝日、第一土、12/29〜1/3,◎駐車場より病院玄関救急入口までスロープ。<br>◎車イスを30台設置、身障者用浴槽がある。,135.1932659,0,,34.04545982
30472,30472,湯浅診療所、湯浅隣保館,有田郡湯浅町湯浅2718-1,3,和歌山県,有田郡湯浅町,湯浅2718-1,0737-63-5702(診療所)、0737-63-6499(隣保館),,8:45〜17:30,8:45,17:30,地上２階,土、日、祝日,,135.1778415,0,,34.03899175
30473,30473,有田南病院,有田郡有田川町小島15,3,和歌山県,有田郡有田川町,小島15,0737-52-3730,0737-52-6860,24時間,0:00,24:00:00,地上５階,なし（救急病院に付）,◎別館にはデイサービスセンター併設、別館エレベーターには、点字、音声案内付エレベーターを設置。<br>◎それとは別に在宅介護支援センターきび訪問看護ステーションを併設。,135.2011125,0,,34.06768394
30474,30474,西岡病院,有田郡有田川町小島278-1,3,和歌山県,有田郡有田川町,小島278-1,0737-52-6188,0737-52-6091,24時間,0:00,24:00:00,地上４階,なし（救急病院に付）,◎外来玄関に段差があるが、介護人などによる対応。,135.1966209,0,,34.06551472
30475,30475,みのりクリニック,有田郡有田川町吉原908,3,和歌山県,有田郡有田川町,吉原908,0737-32-2512,0737-32-4128,9:00〜12:00、16:00〜19:00,9:00,16:00,地上２階,木午後、土、日、祝祭日,,135.2525015,0,,34.05421463
30476,30476,晃和会谷口病院,海南市日方328,3,和歌山県,海南市,日方328,073-482-2500,073-482-4890,,9:00,17:30,地上５階,日、祝日,,135.2085864,0,,34.15770919
30477,30477,恵友病院,海南市船尾264-2,3,和歌山県,海南市,船尾264-2,073-483-1033,073-483-1855,9:00〜19:00,9:00,19:00,地上６階,日曜日・祝祭日・土曜午後,,135.1989206,0,,34.15949566
30478,30478,海南市民病院,海南市日方1272-3,3,和歌山県,海南市,日方1272-3,073-482-4521,073-482-9551,8:30〜17:15,8:30,17:15,地上４階,日、祝日、年末年始,,135.2084036,0,,34.15617692
30479,30479,久生会山本病院,海南市名高506-4,3,和歌山県,海南市,名高506-4,073-482-4346,073-482-0882,8:30〜19:00,8:30,19:00,地上４階,日、祝日,,135.2118972,0,,34.15322636
30480,30480,天竹会竹中整形外科,海南市重根11-1,3,和歌山県,海南市,重根11-1,073-487-4171,073-487-5134,９:00〜18:30,9:00,18:30,地上３階,日、祝日,,135.2390154,0,,34.15339188
30481,30481,辻秀輝整形外科,海南市名高178-1,3,和歌山県,海南市,名高178-1,073-483-3131,073-482-6090,24時間,0:00,24:00:00,地上４階,土、日、祝日,◎救急告示医療施設<br>◎辻秀輝整形外科ホームページアドレスhttp://www.cypress.ne.jp/tsuji-h/<br>◎お見舞メールアドレス有り（ホームページ内）,135.2157802,0,,34.15361622
30482,30482,同仁会辻整形外科,海南市築地1-50,3,和歌山県,海南市,築地1-50,073-483-1234,073-483-0221,9:00〜19:00（診療）,9:00,19:00,地上３階,日、祝日,,135.2103732,0,,34.15257641
30483,30483,海南保健所（海草福祉事務所）,海南市大野中939,3,和歌山県,海南市,大野中939,073-482-0600,073-482-3786,9:00〜17:45,9:00,17:45,地上２階,土、日、祝日,,135.2264544,0,,34.15948229
30484,30484,医療法人琴仁会石本病院,海南市船尾365,3,和歌山県,海南市,船尾365,073-482-5063,073-482-5408,9:00〜19:00,9:00,19:00,地上４階,日、祝日、年末年始,◎全館バリアフリーです。,135.1956209,0,,34.15928839
30485,30485,南労会紀和病院,橋本市神野々1103,3,和歌山県,橋本市,神野々1103,0736-34-1255,0736-34-2614,診9:00〜12:0017:00〜19:30,9:00,19:30,地上５階,土、日、祝日、12/30〜1/3,,135.5817343,0,,34.30604176
30486,30486,岡田整形外科,橋本市市脇１丁目45-2,3,和歌山県,橋本市,市脇１丁目45-2,0736-32-8080,0736-32-8082,9:00〜12:0016:00〜19:00,9:00,19:00,地上３階,日曜、12/30〜1/5,,135.6012035,0,,34.31460347
30487,30487,博寿会山本内科病院,橋本市東家6丁目7-26,3,和歌山県,橋本市,東家6丁目7-26,0736-32-8899,0736-34-2738,9:15〜19:00,9:15,19:00,地上３階,土、日、祝日、12/30〜1/3,,135.6051832,0,,34.31323536
30488,30488,老人保健施設メディケア橋本,橋本市神野々877-1外6筆,3,和歌山県,橋本市,神野々877-1外6筆,0736-34-0187,0736-39-1155,24時間,0:00,24:00:00,地上３階,,◎２階、各室に車椅子用トイレ：２２箇所,135.5797657,0,,34.30599567
30489,30489,有田市立病院,有田市宮崎町6,3,和歌山県,有田市,宮崎町6,0737-82-2151,0737-82-4343,8:30〜17:00（外来）,8:30,17:00,地上５階,日、祝日,◎車椅子用公衆電話はないが、カウンター上に設置され、車イス利用者も使用可。,135.1198879,0,,34.08091755
30490,30490,桜ヶ丘病院,有田市宮崎町841-1,3,和歌山県,有田市,宮崎町841-1,0737-83-0078,0737-83-0079,9:00〜12:00（外来）,9:00,12:00,地上３階,日、祝日,◎車椅子用公衆電話はないが、カウンター上に設置され、車イス利用者も使用可。,135.1127442,0,,34.07545736
30491,30491,千田老人憩いの家,有田市千田1255,3,和歌山県,有田市,千田1255,（区長宅0737-82-5548）,,9:00〜19:00,9:00,19:00,地上２階,,◎駐車場は前面道路の反対側の須佐神社の駐車場を利用できます。その駐車場から当施設入口までは段差はありません。,135.1404721,0,,34.065259
30492,30492,砂浜会館デイサービスセンター,有田市初島町浜1769-1,3,和歌山県,有田市,初島町浜1769-1,0737-82-3274,,9:00〜16:00,9:00,16:00,地上１階,土・日・祭日,,135.1120415,0,,34.09723201
30493,30493,裕柴会中紀クリニック,御坊市藤田町吉田324-1,3,和歌山県,御坊市,藤田町吉田324-1,0738-22-8777,0738-22-8777,24時間,0:00,24:00:00,地上１階,年中無休,,135.1711144,0,,33.90144506
30494,30494,特定・特別医療法人黎明会　北出病院,御坊市湯川町財部728-4,3,和歌山県,御坊市,湯川町財部728-4,0738-22-2188,0738-22-2166,午前8:30〜12:30　午後13:30〜18:00（救急24時間）,0:00,24:00:00,地上３階,年中無休,,135.1552296,0,,33.8969062
30495,30495,国保日高総合病院,御坊市薗116-2,3,和歌山県,御坊市,薗116-2,0738-22-1111,0738-24-1751,9:00〜23:30（救急24時間）,9:00,24:00:00,地上８階、地下２階,日、祝日,◎障害者用エレベーターは設置していませんが、一般エレベーターに点字表示、低位置操作盤及び音声案内が設置されています。,135.1540736,0,,33.89598347
30496,30496,北裏病院,御坊市湯川町小松原454,3,和歌山県,御坊市,湯川町小松原454,0738-22-3352,0738-22-3354,8:30〜17:00,8:30,17:00,地上５階,土曜午後、日、祝日,,135.1570282,0,,33.90646189
30497,30497,紀伊クリニック,御坊市湯川町小松原615-1,3,和歌山県,御坊市,湯川町小松原615-1,0738-24-2222,0738-24-1735,月、水、金8:30〜18:00<br>火、木、土8:30〜24:00<br>（救急24時間）,8:30,24:00:00,地上３階,日、祝日,,135.1504855,0,,33.90545124
30498,30498,御坊保健所,御坊市湯川町財部859-2,3,和歌山県,御坊市,湯川町財部859-2,0738-22-3481,0738-23-3004,9:00〜17:45,9:00,17:45,地上２階,土、日、祝日,◎日高福祉事務所と同建物であり、駐車場と便所を共用。（日高福祉事務所は１階の一部に設けられている）,135.1597875,0,,33.90211965
30499,30499,曽根クリニック,御坊市湯川町小松原536-8,3,和歌山県,御坊市,湯川町小松原536-8,0738-32-2500,0738-23-3673,9:00〜12:00、15:00〜18:00,9:00,18:00,地上１階,木、日、祝日,◎バリアフリーとなるよう心がけています。<br>◎障害者の方が希望されれば、開院時間のみですが、トイレのみの利用に来て頂いても結構です。,135.1517354,0,,33.90434029
30500,30500,洗心会玉置病院,田辺市上屋敷町147,3,和歌山県,田辺市,上屋敷町147,0739-22-6028,0739-25-2825,,7:00,16:50,地上６階,,,135.3762161,0,,33.73091583
30501,30501,国立病院機構南和歌山医療センター,田辺市たきない町27-1,3,和歌山県,田辺市,たきない町27-1,0739-26-7050（代表）<br>0739-26-7195（時間外緊急）,0739-24-2055,8:30〜11:00（受付),8:30,11:00,地上６階、地下１階,土、日、祝日、年末年始,,135.3996801,0,,33.70065711
30502,30502,新宮市立医療センター,新宮市蜂伏18-7,3,和歌山県,新宮市,蜂伏18-7,0735-31-3333（代表),0735-31-3337,8:30〜11:00（お見舞い：14:00〜19:00）,8:30,19:00,地上６階、地下１階,土・日・祝日（お見舞いのみの場合は休みなし）,"◎各病室にトイレ設置。<br>◎車椅子用電話は1,2,3,4,5,6階に　有り。",135.9642515,0,,33.68695911
30503,30503,医療法人両茂会岩崎病院,新宮市三輪崎1384,3,和歌山県,新宮市,三輪崎1384,0735-31-7153,0735-31-5655,外来：9:00〜正午,9:00,12:00,地上２階,外来：日・祝日<br>土曜日：特別予約診のみ,,135.9806109,0,,33.69153244
30504,30504,さとう眼科,新宮市井の沢12-6,3,和歌山県,新宮市,井の沢12-6,0735-28-0310,0735-28-0311,9:00〜18:00,9:00,18:00,地上２階,木(午後)、土・日・祝日,,135.9897528,0,,33.72193634
30505,30505,恵友会下津クリニック,海南市下津町小南126-1,3,和歌山県,海南市,下津町小南126-1,073-492-5131,073-492-0085,9:00〜12:00,9:00,12:00,地上４階,日、祝日、年末年始,,135.168118,0,,34.12803471
30506,30506,デイサービスセンター下津グループホームひだまり,海南市下津町方498-25,3,和歌山県,海南市,下津町方498-25,073-493-3300,073-493-3770,9:00〜15:30,8:30,15:30,地上３階,日曜日,◎車椅子用の浴室では、日本庭園を眺めながら入浴できます。,135.145787,0,,34.12420127
30507,30507,国保野上厚生総合病院,海草郡紀美野町小畑１９８,3,和歌山県,海草郡紀美野町,小畑１９８,073-489-2178,073-489-5639,診療受付　8:30〜11:30,8:30,11:30,地上５階、地下１階,日曜、祝日,◎一般駐車場より玄関までは道路を横断します。<br>◎障害者用（車イス）便所の手すり等を障害者の状態に応じて使いやすい様に各便所で工夫しています。,135.2950516,0,,34.16325517
30508,30508,町営国吉診療所,海草郡紀美野町田63,3,和歌山県,海草郡紀美野町,田63,073-498-0002,073-498-0003,9:00〜17:15,9:00,17:15,地上１階,月・水(午前)、金(午前)　※祝日は除く,,135.4155341,0,,34.13955934
30509,30509,町営長谷毛原診療所,海草郡紀美野町毛原宮254,3,和歌山県,海草郡紀美野町,毛原宮254,073-499-0300,073-499-0300,9:00〜17:15,9:00,17:15,地上１階,火・水(午後)、金(午後)　※祝日は除く,,135.4616461,0,,34.16238216
30510,30510,独立行政法人国立病院機構和歌山病院,日高郡美浜町和田1138,3,和歌山県,日高郡美浜町,和田1138,0738-22-3256,0738-23-3104,8:30〜17:15,8:30,17:15,地上２階,土、日、祝日,,135.1354836,0,,33.89244968
30511,30511,医療法人寺田医院,日高郡由良町里57-2,3,和歌山県,日高郡由良町,里57-2,0738-65-0027,0738-65-0531,9:00〜12:00、16:00〜19:00,9:00,19:00,地上３階,日、祝日、土曜午後,,135.1193763,0,,33.96080602
30512,30512,寒川診療所,日高郡日高川町寒川293,3,和歌山県,日高郡日高川町,寒川293,0738-58-0012,0738-58-0271,8:30〜17:30,8:30,17:30,地上２階,土、日、祝日,,135.4667628,0,,33.9576711
30513,30513,医療法人稲穂会稲穂会病院,紀の川市粉河756-3,3,和歌山県,紀の川市,粉河756-3,0736-74-2100,0736-74-2420,9:00〜12:00　17:00〜19:00,9:00,19:00,地上３階,日、祝日,,135.4041509,0,,34.26785494
30514,30514,共栄会名手病院,紀の川市名手市場294-1,3,和歌山県,紀の川市,名手市場294-1,0736-75-5252,0736-75-2111,9:00〜12:00、16:30〜19:00,9:00,19:00,地上３階,日、祝日,,135.4381474,0,,34.2727717
30515,30515,那賀リハビリステーション病院,紀の川市丸栖1423-3,3,和歌山県,紀の川市,丸栖1423-3,0736-64-0061,0736-64-0063,13:00〜17:00,13:00,17:00,地上３階,：土、日、祝日,,135.327162,0,,34.24066431
30516,30516,富田病院,岩出市紀泉台2,3,和歌山県,岩出市,紀泉台2,0736-62-1522,0736-62-5379,救急指定〜24時間,0:00,24:00:00,地上４階,年中無休,,135.2934667,0,,34.28082506
30517,30517,紀の川クリニック,岩出市西国分501,3,和歌山県,岩出市,西国分501,0736-62-0717,0736-62-2831,9:00〜19:00,9:00,19:00,地上４階,日曜,,135.3317123,0,,34.26521553
30518,30518,白浜はまゆう病院,西牟婁郡白浜町1447,3,和歌山県,西牟婁郡白浜町,1447,0739-43-6200,,9:00〜12:00、14:00〜17:00,9:00,17:00,地上５階、地下１階,日、祝日,,135.3494145,0,,33.68178567
30519,30519,白浜医療保健福祉総合センター,西牟婁郡白浜町1447,3,和歌山県,西牟婁郡白浜町,1447,0739-43-6200,0739-43-7891,8:30〜17:30,8:30,17:30,地上５階、地下１階,土曜午後・日・祭日・年末年始,,135.3494145,0,,33.68178567
30520,30520,大江歯科,西牟婁郡上富田町朝来1364,3,和歌山県,西牟婁郡上富田町,朝来1364,0739-47-4530,0739-47-4539,9:00〜12:30、14:00〜18:00,9:00,18:00,地上３階,水曜午後、土、日、祝日,◎あらかじめ電話をすれば職員が玄関に出て介助する。,135.4179364,0,,33.69606275
30521,30521,国保すさみ病院,西牟婁郡すさみ町周参見2380,3,和歌山県,西牟婁郡すさみ町,周参見2380,0739-55-2065,0739-55-2225,8:30〜23:30,8:30,23:30,地上３階,土、日、祝日,,135.496373,0,,33.55621968
30522,30522,くしもと町立病院,東牟婁郡串本町サンゴ台691-7,3,和歌山県,東牟婁郡串本町,サンゴ台691-7,0735-62-7111,0735-67-7200,8:30〜17:15　受付は7:30〜,8:30,17:15,地上４階,土、日、祝祭日,,135.7844028,0,,33.48479078
30523,30523,潮岬病院,東牟婁郡串本町潮岬417,3,和歌山県,東牟婁郡串本町,潮岬417,0735-62-0888,0735-62-4694,8:00〜17:00,8:00,17:00,地上３階,なし,,135.7699615,0,,33.45428894
30524,30524,温泉病院,東牟婁郡那智勝浦町天満483-1,3,和歌山県,東牟婁郡那智勝浦町,天満483-1,07355-2-1055,07355-2-3853,,9:00,15:00,地上４階,日、祝日,,135.936111,0,,33.63446472
30525,30525,日比記念病院,東牟婁郡那智勝浦町朝日１丁目221-1,3,和歌山県,東牟婁郡那智勝浦町,朝日１丁目221-1,07355-2-6511,07355-2-5438,9:00〜18:00,9:00,18:00,地上４階,日、祝日,,135.9369999,0,,33.63010411
30526,30526,坂野医院,東牟婁郡太地町太地3055,3,和歌山県,東牟婁郡太地町,太地3055,07355-9-2063,07355-9-2175,9:00〜17:00,9:00,17:00,地上２階,日、祝日,,135.9416827,0,,33.59473022
30527,30527,新宮保健所串本支所,東牟婁郡串本町西向193,3,和歌山県,東牟婁郡串本町,西向193,07357-2-0525,07357-2-2739,9:00〜17:45,9:00,17:45,地上２階,土、日、祝日,,135.821346,0,,33.52053203
30528,30528,新宮市国民健康保険直営熊野川診療所,新宮市熊野川町日足322,3,和歌山県,新宮市,熊野川町日足322,0735-44-0314,0735-44-0314,8:30〜11:30（受付時間）,8:30,11:30,地上１階,土、日、祝日,,135.8721134,0,,33.80619387
30529,30529,医療法人　宮本病院,和歌山市塩屋３丁目6-1,3,和歌山県,和歌山市,塩屋３丁目6-1,073-444-0576,073-447-0294,9:00〜17:00,9:00,17:00,地上４階,日・祝,,135.1751287,0,,34.19894734
30530,30530,医療法人　井上病院,和歌山市小人町南ノ丁２０,3,和歌山県,和歌山市,小人町南ノ丁２０,073-433-2500,,6:00〜21:00,6:00,21:00,地上６階、地下１階,なし,,135.1661729,0,,34.2294471
30531,30531,医療法人　青松会河西　田村病院,和歌山市島橋南ノ丁243-33他,3,和歌山県,和歌山市,島橋南ノ丁243-33他,073-455-1015,,全日,0:00,24:00:00,地上４階,なし,◎浴室は障害者可,135.1504217,0,,34.24296396
30532,30532,和歌山生協病院,和歌山市有本143-1,3,和歌山県,和歌山市,有本143-1,073-471-7711,073-474-2387,9:00〜12:00、17:00〜19:00<br>土曜は9:00〜12:00,9:00,19:00,地上４階、地下１階,日曜、祝日、土曜午後,◎駐車場より別入口あり。段差あるがスロープ付。,135.1967285,0,,34.24524461
30533,30533,上田内科,伊都郡かつらぎ町笠田東１７１,3,和歌山県,伊都郡かつらぎ町,笠田東１７１,0736-22-1306,,9:00〜12:00　　15:00〜16:00,9:00,16:00,地上３階,,,135.4794309,0,,34.28764188
30534,30534,医療法人卓麻会　宇治田循環器内科,和歌山市榎原２０４番地の８,3,和歌山県,和歌山市,榎原２０４番地の８,073-455-6699,,9:00〜19:00,9:00,19:00,地上４階,日・祝日,◎ベビーベッド有り：１階玄関待合所右側,135.1253129,0,,34.25421332
30535,30535,医療法人田村病院,和歌山市小倉６４５,3,和歌山県,和歌山市,小倉６４５,073-477-1268,,8:45〜17:00,8:45,17:00,地上２階,日・祝日,,135.2865233,0,,34.24874466
30536,30536,岡本助産院,和歌山市小雑賀２０５−１,3,和歌山県,和歌山市,小雑賀２０５−１,073-428-7737,,9:00〜12:00,9:00,12:00,地上２階,日・木,◎ベビーベッド　有り　待合室内<br>◎玄関から待合室は土間段差あり介助必要,135.1841709,0,,34.20502502
30537,30537,向井病院,和歌山市北野２８４−３,3,和歌山県,和歌山市,北野２８４−３,073-461-1156,,9:00〜12:00　16:00〜19:00（月・火・水・金）,9:00,19:00,地上３階,日・祝日,,135.2473875,0,,34.26882597
30538,30538,角谷リハビリテーション病院,和歌山市納定１０−１,3,和歌山県,和歌山市,納定１０−１,073-475-1230,,9:00〜17:00,9:00,17:00,地上４階,日・祝日,◎ベビーベッド　有り　身体障害者用便所内,135.1913921,0,,34.23729938
30539,30539,医療法人郷の会　こころの郷クリニック,橋本市高野口町名古曽字下丹生下９１７ー１他,3,和歌山県,橋本市,高野口町名古曽字下丹生下９１７ー１他,0736-42-5858,,9:00〜17:00,9:00,17:00,地上２階,土・日・祝日,,135.5605814,0,,34.30152
30540,30540,小柳歯科クリニック,橋本市岸上字川端５６３−１,3,和歌山県,橋本市,岸上字川端５６３−１,0736-33-0866,,10:00〜13:30　15:00〜19:30,10:00,19:30,地上２階,火・金・祝日,,135.5898281,0,,34.31154696
30541,30541,医療法人南労会　紀和病院,橋本市岸上１８番地の１,3,和歌山県,橋本市,岸上１８番地の１,0736-34-1317,,２４時間,0:00,24:00:00,地上４階,なし,◎ベビーベッド　有り：障害者用便所内,135.5825514,0,,34.30588088
30542,30542,医療法人千穂会　桜ヶ丘病院,有田市宮崎町８４１−１,3,和歌山県,有田市,宮崎町８４１−１,0737-83-0982,,9:00〜12:00,9:00,12:00,地上３階,日・祝日,,135.1129588,0,,34.07548486
